name,number,type,address,city,state,zip,lat,lng
SPFD,11,STATION,140 LONCZAK DRIVE,CHICOPEE,MA,1022,42.1859907,-72.55298924
NRTH,13,STATION,1 BEEMAN ROAD,NORTHBOROUGH,MA,1532,42.3118463,-71.60675887
WORC,16,STATION,100 PINE HILL DRIVE,BOYLSTON,MA,1505,42.3278981,-71.7284782
NATK,17,STATION,30 SUPERIOR DRIVE,NATICK,MA,1760,42.30123972,-71.37932905
WLMG,18,STATION,45 INDUSTRIAL WAY,WILMINGTON,MA,1887,42.528588,-71.1407668
NBIL,20,STATION,90 SALEM ROAD,NORTH BILLERICA,MA,1862,42.5760406,-71.2670041
ANDO,21,STATION,375 BALLARDVALE ST.,WILMINGTON,MA,1887,42.6084638,-71.1582429
QUIC,22,STATION,520 COMMANDER SHEA BLVD,QUINCY,MA,2171,42.2915666,-71.0311393
BRKT,24,STATION,985 BELMONT STREET,BROCKTON,MA,2301,42.06450365,-71.05724695
MVYD,25,SUBSTATION,19 NORTH LINE ROAD,EDGARTOWN,MA,2539,41.3926954,-70.60647725
CAPE,26,STATION,17 COWAN DRIVE,MIDDLEBORO,MA,2346,41.8137439,-70.79896188
NNTK,27,SUBSTATION,9 NANCY LANE,NANTUCKET,MA,2554,41.26007855,-70.0767454
SEEK,28,STATION,1977 FALL RIVER AVENUE,SEEKONK,MA,2771,41.78028882,-71.29707108
PROV,29,STATION,29 GREEN EARTH WAY,JOHNSTON,RI,2919,41.7969136,-71.5147308
MANC,31,STATION,44 INDUSTRIAL DRIVE,LONDONDERRY,NH,3053,42.91147045,-71.43295785
KEEN,34,STATION,40 COACHMAN ROAD,WEST CHESTERFIELD,NH,3466,42.8901913,-72.4866501
LITT,35,STATION,883 INDUSTRIAL PARK DRIVE,LITTLETON,NH,3561,44.2910904,-71.7987086
LEBN,37,STATION,30 PLAZA HEIGHTS ROAD,WEST LEBANON,NH,3784,43.62501415,-72.31754425
BIDD,40,STATION,1 BAKERS WAY,BIDDEFORD,ME,4005,43.473925,-70.48452597
PTLD,41,STATION,115 INDUSTRIAL PARK ROAD,SACO,ME,4072,43.5400018,-70.4381177
AUME,43,STATION,380 RIVER ROAD,LEWISTON,ME,4240,44.0518161,-70.1879984
BANG,44,STATION,27 MACK LANE,BANGOR,ME,4401,44.7769412,-68.8731255
HLTN,47,STATION,191 LUDLOW ROAD,HOULTON,ME,4730,46.1410845,-67.8588475
BRLT,54,STATION,635 COMMUNITY DRIVE,SOUTH BURLINGTON,VT,5403,44.4481187,-73.14328837
NSRF,59,STATION,495 LORDSHIP BOULEVARD,STRATFORD,CT,6615,41.168915,-73.1521816
HARL,60,HUB LOCAL,350 RUBY ROAD,WILLINGTON,CT,6279,41.92095624,-72.25992803
HART,61,HUB,350 RUBY ROAD,WILLINGTON,CT,6279,41.92095624,-72.25992803
MIDD,62,HUB,49 FEDEX DRIVE,MIDDLETOWN,CT,6457,41.59794895,-72.71789375
WNDS,63,STATION,759 RAINBOW ROAD,WINDSOR,CT,6095,41.9123992,-72.6818524
SWND,64,STATION,40 KENNEDY ROAD,SOUTH WINDSOR,CT,6074,41.855001,-72.5824979
NHVN,66,STATION,29 TOELLES ROAD,WALLINGFORD,CT,6492,41.4280144,-72.8428308
NEWK,67,STATION,173 DOREMUS AVE #269,NEWARK,NJ,7105,40.7275747,-74.1243558
STRA,68,STATION,825 LORDSHIP BLVD,STRATFORD,CT,6615,41.16782942,-73.14580936
ELMS,69,STATION,300 WATERSIDE DRIVE,ELMSFORD,NY,10523,41.0662508,-73.8193857
SECA,70,STATION,1049 SECAUCUS ROAD,JERSEY CITY,NJ,7307,40.7605218,-74.0518202
METU,72,HUB,25-53 TALMADGE ROAD,EDISON,NJ,8817,40.52794058,-74.39003822
METX,73,STATION,25-53 TALMADGE ROAD,EDISON,NJ,8817,40.52794058,-74.39003822
WAYN,74,STATION,95 DEMAREST DRIVE,WAYNE,NJ,7470,40.90284035,-74.26074417
DOVR,75,STATION,1 COMMERCE CENTER DRIVE,DOVER,NJ,7801,40.89774945,-74.55561187
MOON,76,STATION,1 CHIPPEWA STREET,SOUTH HACKENSACK,NJ,7606,40.862605,-74.048625
EBRN,80,STATION,39 EDGEBORO ROAD,EAST BRUNSWICK,NJ,8816,40.467576,-74.397013
CAMD,81,STATION,5 COMMERCE DRIVE,BARRINGTON,NJ,8007,39.8627635,-75.0418803
NWRS,83,STATION,173 DOREMUS AVE #269,NEWARK,NJ,7105,40.7275747,-74.1243558
PRNC,85,STATION,63 STULTS ROAD,DAYTON,NJ,8810,40.3577331,-74.4827856
ROBB,86,STATION,584 US ROUTE 130,TRENTON,NJ,8691,40.1885819,-74.6559624
LWOO,88,HUB LOCAL,6000 RIVERSIDE DR,KEASBEY,NJ,8832,40.5079404,-74.3267161
WOOD,89,HUB,6000 RIVERSIDE DR,KEASBEY,NJ,8832,40.5079404,-74.3267161
NYNY,100,STATION,300 MASPETH AVE.,BROOKLYN,NY,11211,40.71700695,-73.93144763
SUNY,103,STATION,46-06 57TH AVENUE,MASPETH,NY,11378,40.7254074,-73.9251437
BRNX,104,STATION,635 ZEREGA AVENUE,BRONX,NY,10473,40.82059047,-73.84220829
WTPL,106,STATION,109 FAIRVIEW PARK DRIVE,ELMSFORD,NY,10523,41.067865,-73.8211761
YONK,107,STATION,10 HERRMANN PLACE,YONKERS,NY,10710,40.9552919,-73.85848241
SPVY,108,STATION,9 AL FOXIE WAY,BLAUVELT,NY,10913,41.0813778,-73.9554702
CANR,110,STATION,570 E. 108th STREET,BROOKLYN,NY,11236,40.6518058,-73.89731253
LWRC,111,STATION,1 JOHNSON ROAD,LAWRENCE,NY,11559,44.596017,-75.326698
QUEE,114,STATION,29-01 BORDEN AVE,LONG ISLAND CITY,NY,11101,40.7393197,-73.9409928
GARD,115,STATION,160 GRUMMAN ROAD WEST,BETHPAGE,NY,11714,40.7433354,-73.49031335
NBTH,116,STATION,1 AEROSPACE BOULEVARD,BETHPAGE,NY,11714,40.75754195,-73.49100371
LNGI,117,STATION,5901 VETERANS MEMORIAL HWY,HOLBROOK,NY,11741,40.77368315,-73.06272858
SCTY,121,SUBSTATION,900 ROTTERDAM INDUSTRIAL PARK,SCHENECTADY,NY,12306,42.7828509,-73.98634245
ALBA,122,STATION,253 TROY ROAD,RENSSELAER,NY,12144,42.63621135,-73.70285702
NWBG,125,STATION,3 ENTERPRISE DRIVE,NEWBURGH,NY,12550,41.51312585,-74.11580733
MOTG,127,STATION,201 NEELYTOWN ROAD,MONTGOMERY,NY,12549,41.4966297,-74.2241744
PLAT,129,STATION,82 GATEWAY DRIVE,PLATTSBURGH,NY,12901,44.778699,-73.43199101
ESYR,130,STATION,6650 NEW VENTURE GEAR DR,EAST SYRACUSE,NY,13057,43.09158975,-76.06042177
SYRL,131,HUB LOCAL,7020 VAN BUREN ROAD,SYRACUSE,NY,13209,43.11195125,-76.29348337
SYRA,132,HUB,7020 VAN BUREN ROAD,SYRACUSE,NY,13209,43.11195125,-76.29348337
UTIC,135,STATION,101 CANDELLA EXPRESS DRIVE,MARCY,NY,13403,43.1356638,-75.273347
WATE,136,STATION,21043 COUNTY ROUTE 200,WATERTOWN,NY,13601,43.9938308,-75.9515803
CONK,139,STATION,299 BROOME CORPORATE PARKWAY,CONKLIN,NY,13748,42.0544901,-75.8182348
CHEK,141,SUBSTATION,2799 WALDEN AVE,CHEEKTOWAGA,NY,14225,42.9078082,-78.7312316
BUFF,142,STATION,3779 LAKE SHORE ROAD,BUFFALO,NY,14219,42.7805181,-78.8463071
EROC,145,STATION,5980 COLLET ROAD,FARMINGTON,NY,14425,42.9857502,-77.3516447
ROCH,146,STATION,225 THRUWAY PARK,WEST HENRIETTA,NY,14586,43.0425461,-77.67496991
CORN,149,STATION,224 NORTH MAIN STREET,HORSEHEADS,NY,14845,42.1774191,-76.8188095
NPIT,150,STATION,300 TOMLINSON ROAD,ZELIENOPLE,PA,16063,40.7581363,-80.1055174
PITT,152,STATION,2702 NEVILLE ROAD,PITTSBURGH,PA,15225,40.5015937,-80.0908449
CLTN,153,ANNEX,2291 SWEENEY DRIVE,CLINTON,PA,15026,40.49727395,-80.29462165
GRBG,156,STATION,2000 LABONTE DRIVE,HUNKER,PA,15639,40.2136536,-79.6190233
DUBO,158,STATION,6 INDUSTRIAL DRIVE,DU BOIS,PA,15801,41.1328881,-78.7328302
OILC,163,STATION,1715 DEBENCE DRIVE,FRANKLIN,PA,16323,41.3535536,-79.8673962
ERIE,165,STATION,7500 BIRKMIRE DRIVE,FAIRVIEW,PA,16415,42.0244844,-80.19200124
ALTO,166,STATION,231 THEATER DRIVE,DUNCANSVILLE,PA,16635,40.4404576,-78.4408751
HRBG,170,HUB,510 INDUSTRIAL DRIVE,LEWISBERRY,PA,17339,40.1645187,-76.83909965
HRBL,171,HUB LOCAL,510 INDUSTRIAL DRIVE,LEWISBERRY,PA,17339,40.1645187,-76.83909965
CARL,172,STATION,951 CENTERVILLE ROAD,NEWVILLE,PA,17241,40.154788,-77.381177
EHRB,176,STATION,111 FULLING MILL ROAD,MIDDLETOWN,PA,17057,40.21457,-74.917125
WMPT,177,STATION,600 ALEXANDER DRIVE,MUNCY,PA,17756,41.2509018,-76.8445277
READ,178,SUBSTATION,2525 NORTH 12TH STREET,READING,PA,19605,40.362074,-75.913467
PTSV,179,STATION,52 HICKORY DRIVE,AUBURN,PA,17922,40.6075438,-76.0897698
BREI,180,STATION,8451 WILLARD DRIVE,BREINIGSVILLE,PA,18031,40.5546356,-75.6284464
LEHL,181,HUB LOCAL,1000 WILLOWBROOK ROAD,NORTHAMPTON,PA,18067,40.682444,-75.4662033
LEHI,182,HUB,1000 WILLOWBROOK ROAD,NORTHAMPTON,PA,18067,40.682444,-75.4662033
BRRS,183,STATION,8451 WILLARD DRIVE,BREINIGSVILLE,PA,18031,40.5546356,-75.6284464
SCRA,185,STATION,99 FREEPORT ROAD,PITTSTON,PA,18640,41.3204245,-75.7217029
SPHI,190,STATION,1 TINICUM ISLAND ROAD,PHILADELPHIA,PA,19113,39.8660269,-75.283394
PHIL,191,STATION,14300 TOWNSEND ROAD,PHILADELPHIA,PA,19154,40.1021213,-74.9856884
NWAL,192,STATION,1360 WELSH ROAD,NORTH WALES,PA,19454,40.2153752,-75.232774
WSCH,193,STATION,442 CREAMERY WAY,EXTON,PA,19341,40.0164575,-75.655186
KOPR,194,STATION,601 RIVER ROAD,BRIDGEPORT,PA,19405,40.104582,-75.329123
OKSS,195,SUBSTATION,122 MILL ROAD,PHOENIXVILLE,PA,19460,40.1239698,-75.4552287
NEWC,197,STATION,49 DAVIDSON LANE,NEW CASTLE,DE,19720,39.70339849,-75.53856452
WASH,200,STATION,11900 TROLLEY LANE,BELTSVILLE,MD,20705,39.0529769,-76.9086535
UMMD,206,STATION,16001 QUEENS COURT,UPPER MARLBORO,MD,20774,38.8705474,-76.7283079
GAIT,208,STATION,800 N. FREDERICK AVE.,GAITHERSBURG,MD,20879,39.155204,-77.2154797
EBAL,209,STATION,6021 BETHLEHEM BLVD,SPARROWS POINT,MD,21219,39.23417155,-76.4872578
SBAL,210,STATION,4835 HOLLINS FERRY  ROAD,HALETHORPE,MD,21227,39.22444825,-76.68986285
HALE,211,ANNEX,4801 HOLLINS FERRY  ROAD,HALETHORPE,MD,21227,39.2259766,-76.68572772
BALT,212,STATION,10075 PHILADELPHIA ROAD,WHITE MARSH,MD,21162,39.36605269,-76.4497096
CUMB,215,STATION,31 LANE AVENUE,CUMBERLAND,MD,21502,39.6655726,-78.8029551
SDVR,216,SUBSTATION,60 STARLIFTER AVE,DOVER,DE,19901,39.14286892,-75.46979877
HAGL,217,HUB LOCAL,11825 NEWGATE BOULEVARD,HAGERSTOWN,MD,21740,39.6408334,-77.7918477
SALS,218,STATION,161 VENTURE DRIVE,SEAFORD,DE,19973,38.6581715,-75.61225979
HAGE,219,HUB,11825 NEWGATE BOULEVARD,HAGERSTOWN,MD,21740,39.6408334,-77.7918477
LORT,220,STATION,8988 Belvoir View Place,LORTON,VA,22079,38.7257061,-77.1882356
CHAN,221,STATION,14900 STONECROFT CENTER COURT,CHANTILLY,VA,20151,38.9016135,-77.463654
MANA,223,STATION,7303 CUSHING ROAD,MANASSAS,VA,20109,38.7967813,-77.5614046
FRED,224,STATION,300 CENTREPORT PARKWAY,FREDERICKSBURG,VA,22406,38.3907711,-77.4710935
WINC,226,STATION,130 FROGALE COURT,WINCHESTER,VA,22602,39.1281511,-78.2011484
CLTV,229,STATION,7 INDUSTRY WAY,STAUNTON,VA,24401,38.182629,-79.022393
CHES,230,STATION,13301 GROVER COURT,CHESTER,VA,23836,37.3462542,-77.400309
ASHD,232,STATION,10999 AIR PARK ROAD,ASHLAND,VA,23005,37.7004094,-77.4359532
RICH,233,STATION,10105 WHITESEL RD,ASHLAND,VA,23005,37.7036068,-77.4466054
NORF,235,STATION,1401 KELLAND DRIVE,CHESAPEAKE,VA,23320,36.77301825,-76.27391327
NEWP,236,STATION,61 FLOYD THOMPSON BLVD,HAMPTON,VA,23666,37.08562705,-76.38978125
VABE,237,STATION,2555 ELLSMERE AVE,NORFOLK,VA,23513,36.8779147,-76.21952952
EMPO,238,STATION,180 DANIEL A BELMONTE DRIVE,EMPORIA,VA,23847,36.7369448,-77.5097622
ROAN,240,STATION,1935 BLUE HILLS DRIVE NE,ROANOKE,VA,24012,37.31134304,-79.89900975
SALM,241,STATION,2045 COOK DRIVE,SALEM,VA,24153,37.26835763,-80.02266537
PULA,243,STATION,3996 PEPPERELL WAY,DUBLIN,VA,24084,37.077839,-80.7244735
EPNT,252,SUBSTATION,2000 CENTRE COURT,EAST POINT,GA,30344,33.6832181,-84.448772
CHWV,253,STATION,7 JW DRIVE,CHARLESTON,WV,25313,38.407561,-81.8073201
MART,254,STATION,553 CAPERTON BLVD.,MARTINSBURG,WV,25403,39.51410204,-77.96079944
BECK,258,STATION,134 AMELIA ROAD,BEAVER,WV,25813,37.7920596,-81.1290233
EATL,262,ANNEX,4644 SOUTHPARK BLVD,ELLENWOOD,GA,30294,33.6283848,-84.2889375
CLBG,263,STATION,59 FRESA PARKWAY,BRIDGEPORT,WV,26330,39.3492884,-80.3047155
MORG,265,STATION,163 PITMAN ROAD,MORGANTOWN,WV,26501,39.6281642,-80.0032447
POSL,266,ANNEX,13701 SW ANTHONY F SANSONE SR,PORT ST. LUCIE,FL,34987,27.2977589,-80.5216184
FTMX,267,ANNEX,6020 AIRPORT DRIVE,CHARLOTTE,NC,28208,35.2136836,-80.9279272
LNCO,268,STATION,1000 E POWELL DR,LINCOLNTON,NC,28092,35.537296,-81.2157365
FAYX,269,ANNEX,1030 FORT WORTH AVE,FAYETTEVILLE,NC,28312,35.062393,-78.837557
RKRI,270,SUBSTATION,2400 NORTH MEMORIAL DRIVE,GREENVILLE,NC,27834,35.652765,-77.364975
RALX,271,ANNEX,8001 KNIGHTDALE BLVD,KNIGHTDALE,NC,27545,35.80721211,-78.46095665
ELON,272,STATION,6538 JUDGE ADAMS ROAD,WHITSETT,NC,27377,36.0472007,-79.5909753
GRNL,273,HUB LOCAL,1544 OLD GREENSBORO ROAD,KERNERSVILLE,NC,27284,36.1118657,-80.0525846
GRNB,274,HUB,1544 OLD GREENSBORO ROAD,KERNERSVILLE,NC,27284,36.1118657,-80.0525846
NCRS,275,STATION,4906 GIBBON RD,CHARLOTTE,NC,28269,35.3049781,-80.8177146
RALE,276,STATION,2600 PAGE ROAD,DURHAM,NC,27703,35.91644116,-78.81474799
DURH,277,STATION,4357 S. ALSTON AVE,DURHAM,NC,27713,35.90852665,-78.88229815
ECAR,278,STATION,5350 NORTHLAND DRIVE,GREENVILLE,NC,27834,35.65065455,-77.35173121
ELIZ,279,STATION,204 SOUTH GRANBY STREET,HERTFORD,NC,27944,36.1707142,-76.4506147
CONC,280,STATION,4350 FORTUNE AVE NW,CONCORD,NC,28027,35.4278675,-80.6569729
CHAL,281,HUB LOCAL,6604 CSX WAY,CHARLOTTE,NC,28214,35.27297065,-80.922953
CHAR,282,HUB,6600 CSX WAY,CHARLOTTE,NC,28214,35.27117,-80.917435
FAYE,283,STATION,104 MIDWAY DRIVE,RAEFORD,NC,28376,35.0330003,-79.1215122
WILM,284,STATION,3241 PENNINGTON DRIVE,WILMINGTON,NC,28405,34.2973384,-77.8993209
SFAY,285,STATION,880 TECHNOLOGY DRIVE,FAYETTEVILLE,NC,28306,34.9458162,-78.8893915
HICK,286,STATION,1936 AMITY STREET,NEWTON,NC,28658,35.6854612,-81.2592827
BRYC,287,STATION,1995 HIGHWAY 19 SOUTH,BRYSON CITY,NC,28713,35.4071201,-83.4666203
ASHE,288,STATION,99 BROADPOINTE DR.  ,MILLS RIVER,NC,28759,35.41956915,-82.55001273
KANN,289,STATION,4690 GLOBAL AVE NW,CONCORD,NC,28027,35.431235,-80.6550128
NCNC,290,STATION,4906 GIBBON RD,CHARLOTTE,NC,28269,35.3049781,-80.8177146
COLB,292,STATION,151 SHOP GROVE DRIVE,COLUMBIA,SC,29209,33.9404055,-80.9599933
SPAR,293,STATION,450 FALLING CREEK RD,SPARTANBURG,SC,29301,34.9580486,-82.0490851
CHAS,294,STATION,6850 WEBER RD,LADSON,SC,29456,32.9593196,-80.0930159
FLOR,295,STATION,2498 FLORENCE HARLEE BOULEVARD,FLORENCE,SC,29506,34.26776672,-79.68662812
GREE,296,STATION,135 FEDEX WAY,GREENVILLE,SC,29605,34.79213831,-82.39374687
FTML,297,STATION,3058 LAKEMONT BOULEVARD,FORT MILL,SC,29708,35.0895825,-80.9399251
NJKS,298,SUBSTATION,9779 PRITCHARD ROAD,JACKSONVILLE,FL,32219,30.3792683,-81.8188393
WSNC,299,STATION,505 MORGAN LAKES INDUSTRL BLVD,POOLER,GA,31322,32.1728302,-81.27471
MARL,300,HUB LOCAL,1675 AIRPORT ROAD NW,KENNESAW,GA,30144,34.0087685,-84.6019546
NORC,301,STATION,6265 ATLANTIC BOULEVARD,NORCROSS,GA,30071,33.94028045,-84.23493065
ATLL,302,HUB LOCAL,4665 SOUTH PARK BOULEVARD,ELLENWOOD,GA,30294,33.627286,-84.2930181
ATLA,303,HUB,4665 SOUTH PARK BOULEVARD,ELLENWOOD,GA,30294,33.627286,-84.2930181
STAT,304,STATION,3400 ZELL MILLER BOULEVARD,STATESBORO,GA,30458,32.3861162,-81.8394274
MARI,305,HUB,1675 AIRPORT ROAD NW,KENNESAW,GA,30144,34.0087685,-84.6019546
ATHN,306,STATION,1655 OLYMPIC DRIVE,ATHENS,GA,30601,33.9866063,-83.33191071
SALN,307,STATION,3120 ANVIL BLOCK RD ELLENWOOD,ELLENWOOD,GA,30294,33.6362847,-84.2857343
SANC,308,STATION,3120 ANVIL BLOCK RD ELLENWOOD,ELLENWOOD,GA,30294,33.6362847,-84.2857343
AUGU,309,STATION,2902 GUN CLUB ROAD,AUGUSTA,GA,30907,33.5236556,-82.0309279
BRSL,310,STATION,650 BRASELTON PARYKWAY,BRASELTON,GA,30517,34.1193722,-83.7739042
ASTE,311,STATION,7585 FACTORY SHOALS RD. SW,AUSTELL,GA,30168,33.7679273,-84.5882092
MACO,312,STATION,1035 FRANK AMERSON PARKWAY,MACON,GA,31216,32.7377554,-83.72542583
NSVN,313,STATION,595 NORTHPORT PARKWAY,PORT WENTWORTH,GA,31407,32.1993607,-81.1762884
SVNA,314,STATION,126 GIGNILLIAT CIRCLE,SAVANNAH,GA,31408,32.1197786,-81.2210736
WAYC,315,STATION,3349 SIMMONS DRIVE,WAYCROSS,GA,31503,31.2582297,-82.4282888
EALN,316,STATION,4644 SOUTHPARK BLVD,ELLENWOOD,GA,30294,33.6283848,-84.2889375
ALBG,317,STATION,1508 DOUGHERTY AVENUE,ALBANY,GA,31705,31.5541633,-84.1189432
SARS,318,STATION,3120 ANVIL BLOCK ROAD,ELLENWOOD,GA,30294,33.6362847,-84.2857343
COGA,319,STATION,6101 CHATTSWORTH COURT,MIDLAND,GA,31820,32.5328416,-84.8484037
JKSV,320,STATION,13509 WATERWORKS STREET,JACKSONVILLE,FL,32221,30.2762511,-81.8910597
PTRS,322,STATION,13701 SW ANTHONY F SANSONE SR,PORT ST. LUCIE,FL,34987,27.2977589,-80.5216184
TALA,323,STATION,2058 SUMMIT LAKE DRIVE,TALLAHASSEE,FL,32317,30.48315442,-84.14848168
PMCT,324,STATION,7801 COMMERCE BLVD,PANAMA CITY,FL,32404,30.2731848,-85.5184642
PENS,325,STATION,300 MOSSY HEAD PLAZA,DEFUNIAK SPRINGS,FL,32435,30.7351185,-86.3439573
OCLL,326,HUB LOCAL,3100 NW 35TH AVE RD,OCALA,FL,34475,29.2135377,-82.1774311
ORLL,327,HUB LOCAL,3000 DIRECTORS ROW,ORLANDO,FL,32809,28.46189455,-81.42491181
ORLA,328,HUB,3000 DIRECTORS ROW,ORLANDO,FL,32809,28.46189455,-81.42491181
COCO,329,STATION,3155 GRISSOM PKWY,COCOA,FL,32926,28.41527481,-80.78520212
KEYW,330,STATION,100 CHAPMAN ROAD,BIG PINE KEY,FL,33043,24.668217,-81.3568278
MIAM,331,STATION,10400 NW 122nd STREET,MIAMI,FL,33178,25.8825529,-80.3654941
FTLA,333,STATION,2700 NW 25TH STREET,POMPANO BEACH,FL,33069,26.1584286,-80.2222241
WPLM,334,STATION,5731 PREMIER PARK DRIVE,WEST PALM BEACH,FL,33407,26.76232726,-80.12638023
OAKR,335,STATION,7153 S. JOHN YOUNG PARKWAY,ORLANDO,FL,32809,28.4625174,-81.4193991
TAMP,336,STATION,8411 FLORIDA MINING BOULEVARD,TAMPA,FL,33634,28.0268881,-82.531934
STPT,337,STATION,1950 102ND AVE  NORTH,SAINT PETERSBURG,FL,33716,27.8648062,-82.6511396
PLMB,338,STATION,7358 7TH PLACE NORTH,WEST PALM BEACH,FL,33411,26.6872363,-80.1639645
FTMY,339,STATION,14001 JETPORT LOOP,FORT MYERS,FL,33913,26.53908285,-81.7878358
KEYR,340,SUBSTATION,2 NORTH BLACKWATER LANE,KEY LARGO,FL,33037,25.159204,-80.386183
NFTM,341,STATION,1880 ORTIZ AVENUE,FORT MYERS,FL,33905,26.6647548,-81.8122905
BDTN,342,STATION,11915 31ST TERRACE EAST,PALMETTO,FL,34221,27.6220212,-82.534021
KEND,343,STATION,27200 SW 127TH AVE,HOMESTEAD,FL,33032,25.5123944,-80.3987434
OCAL,344,HUB,3100 NW 35TH AVE RD,OCALA,FL,34475,29.2135377,-82.1774311
SKEY,345,SUBSTATION,121 OVERSEAS HIGHWAY,KEY WEST,FL,33040,24.570175,-81.751682
CTPK,346,STATION,5025 W. KNOLLWOOD ST.,TAMPA,FL,33634,28.007965,-82.461594
SNFD,347,STATION,451 MONROE ROAD,SANFORD,FL,32771,28.8004747,-81.3227111
DAVE,348,STATION,5000 NORTH RIDGE TRAIL,DAVENPORT,FL,33897,28.2355199,-81.6589093
SKYL,349,STATION,7830 SOUTHLAND BOULEVARD,ORLANDO,FL,32809,28.45096143,-81.40718821
EBIR,350,STATION,3200 RODEO COURT,BESSEMER,AL,35022,33.3953083,-86.9231099
BIRM,352,STATION,4901 ALTON COURT,BIRMINGHAM,AL,35210,33.5527304,-86.6589045
OANC,353,STATION,7153 JOHN YOUNG PARKWAY ,ORLANDO,FL,32809,28.4652877,-81.4181998
TUSC,354,STATION,3606 FOSTERS INDUSTRIAL DRIVE,TUSCALOOSA,AL,35401,33.1813935,-87.6009653
WMNC,355,STATION,2500 CONSULATE DRIVE,ORLANDO,FL,32819,28.4302402,-81.4075509
SHUN,357,STATION,9324 MADISON BOULEVARD,MADISON,AL,35758,34.67113521,-86.76590231
HUNT,358,STATION,510 PRODUCTION AVENUE,MADISON,AL,35758,34.67191185,-86.78356393
AUGX,359,ANNEX,2902 GUN CLUB RD,AUGUSTA,GA,30907,33.5236556,-82.0309279
TAFT,360,ANNEX,501 GILLS DR,ORLANDO,FL,32824,28.4419115,-81.3842762
MONT,361,STATION,7910 BILL JOSEPH PARKWAY,MONTGOMERY,AL,36105,32.264595,-86.372831
ANNI,362,STATION,35 FISH HATCHERY LANE,EASTABOGA,AL,36260,33.6048817,-86.0056194
DOTH,363,STATION,4674 WESTGATE PARKWAY,DOTHAN,AL,36303,31.27135975,-85.38748024
EVER,364,STATION,124 FAIRVIEW COMMONS DRIVE,EVERGREEN,AL,36401,31.4341907,-86.9545924
KNXX,365,ANNEX,3700 MIDDLEBROOK PIKE,KNOXVILLE,TN,37921,35.962068,-83.969664
MOBI,366,STATION,6752 TRIPPEL ROAD,THEODORE,AL,36582,30.5577719,-88.2111181
SHAV,367,ANNEX,4325 EXECUTIVE DRIVE,SOUTHAVEN,MS,38672,34.9241294,-90.0002914
EBIX,368,ANNEX,1401 GADSDEN HIGHWAY,BIRMINGHAM,AL,35235,33.59566573,-86.64637136
ENAX,369,ANNEX,1050 RICHARD PETTY WAY,LEBANON,TN,37090,36.041794,-86.3942702
EMUR,370,STATION,3161 ELAM FARMS PARKWAY,MURFREESBORO,TN,37127,35.79052497,-86.36642462
NASH,371,HUB,3301 KNIGHT ROAD,NASHVILLE,TN,37207,36.232112,-86.803803
NASL,372,HUB LOCAL,3301 KNIGHT ROAD,NASHVILLE,TN,37207,36.232112,-86.803803
CHAT,373,STATION,3021 ALTON PARK BLVD,CHATTANOOGA,TN,37410,35.02066302,-85.3137396
ECHT,374,STATION,5076 SUMMIT SPRING WAY,OOLTEWAH,TN,37363,35.0741543,-85.1034321
KODA,375,STATION,3774 SNYDER ROAD,KODAK,TN,37764,35.9953749,-83.6102302
JOHN,376,STATION,2200 TRI-CITIES CROSSING,KINGSPORT,TN,37663,36.457533,-82.535703
LERS,378,STATION,1050 RICHARD PETTY WAY,LEBANON,TN,37090,36.041794,-86.3942702
KNOX,379,STATION,2560 BERTELKAMP LANE,KNOXVILLE,TN,37931,35.9590989,-84.1444252
MEML,380,HUB LOCAL,555 COMPRESS DRIVE,MEMPHIS,TN,38106,35.08286886,-90.04458533
MEMP,381,HUB,555 COMPRESS DRIVE,MEMPHIS,TN,38106,35.08286886,-90.04458533
ENAS,382,STATION,100 FEDEX WAY,MOUNT JULIET,TN,37122,36.200055,-86.5186054
JACK,383,STATION,7 AMERICAN WOODMARK DRIVE,HUMBOLDT,TN,38343,35.82485,-88.9370466
LAWR,384,STATION,20 COMMERCE WAY,ETHRIDGE,TN,38456,35.2970055,-87.3091459
COOK,385,STATION,1780 TENNTEX DRIVE,COOKEVILLE,TN,38506,36.1287291,-85.4735715
OLIL,386,HUB LOCAL,8505 NAIL ROAD,OLIVE BRANCH,MS,38654,34.94153078,-89.8379785
GRMS,387,STATION,4483 HWY 82 WEST,LELAND,MS,38756,33.3993444,-90.9259864
TUPL,388,STATION,3341 N COLEY ROAD,BELDEN,MS,38826,34.3046842,-88.771799
OLIV,389,HUB,8505 NAIL ROAD,OLIVE BRANCH,MS,38654,34.94153078,-89.8379785
MELX,390,ANNEX,555 COMPRESS DRIVE,MEMPHIS,TN,38106,35.08286886,-90.04458533
OVOB,391,NFS,6495 POLK LANE,OLIVE BRANCH,MS,38654,34.9801131,-89.7776744
JAMS,392,STATION,1549 OLD WHITFIELD RD,PEARL,MS,39208,32.26230319,-90.08630535
MERI,393,STATION,71 HIGHWAY 19 NORTH,MERIDIAN,MS,39307,32.3656057,-88.7299136
HATT,394,STATION,1744 EVELYN GANDY PARKWAY,HATTIESBURG,MS,39401,31.3694392,-89.3134879
GFPT,395,STATION,10268 CORPORATE DRIVE,GULFPORT,MS,39503,30.43632059,-89.04217187
MCCB,396,STATION,1335 PARKLANE ROAD,MCCOMB,MS,39648,31.22588274,-90.47604247
STRK,397,STATION,4925 SOUTH FRONTAGE ROAD,COLUMBUS,MS,39701,33.4787768,-88.5729137
SOCA,398,STATION,635 OCOEE BUSINESS PARKWAY,OCOEE,FL,34761,28.5671747,-81.5512177
NMEM,399,SUBSTATION,3456 MEYERS ROAD,MEMPHIS,TN,38108,35.17780255,-89.94495054
ELOU,400,STATION,12900 PLANTSIDE DR,LOUISVILLE,KY,40299,38.2088165,-85.5197163
SHPD,401,SUBSTATION,270 OMEGA PARKWAY,SHEPHERDSVILLE,KY,40165,37.978102,-85.683543
LOUI,402,STATION,5153 MARITIME ROAD,JEFFERSONVILLE,IN,47130,38.32718217,-85.67760633
LEXX,404,ANNEX,2061 BUCK LANE,LEXINGTON,KY,40511,38.0854506,-84.5387258
LEXN,405,STATION,2024 BUCK LANE,LEXINGTON,KY,40511,38.08273155,-84.53672537
NOKY,406,HUB,11000 TOEBBEN DRIVE,INDEPENDENCE,KY,41051,38.9414555,-84.6164737
LOND,407,STATION,600 INDUSTRIAL BLVD,LONDON,KY,40741,37.1425713,-84.1854643
LONX,408,ANNEX,60 SPRINGLAKE BLVD,LONDON,KY,40744,37.0825516,-84.065217
NOKL,410,HUB LOCAL,11000 TOEBBEN DRIVE,INDEPENDENCE,KY,41051,38.9414555,-84.6164737
ASHL,411,STATION,301 COMMERCE DRIVE,SOUTH POINT,OH,45680,38.4297568,-82.5880048
CHAV,417,STATION,918 COAL FIELDS INDSTRL DR,CHAVIES,KY,41727,37.3478702,-83.3562912
PADU,420,STATION,2500 EICH ROAD,PADUCAH,KY,42003,37.0277287,-88.5811405
BWGR,421,STATION,155 FLEX PARK DRIVE,BOWLING GREEN,KY,42101,36.9261303,-86.4994786
WCOL,428,STATION,8285 INDUSTRIAL PARKWAY,PLAIN CITY,OH,43064,40.1316508,-83.2091036
ECOL,429,STATION,4600 POTH ROAD,COLUMBUS,OH,43213,39.9834191,-82.8784056
COLL,430,HUB LOCAL,6120 SOUTH MEADOWS DRIVE,GROVE CITY,OH,43123,39.8373934,-83.08450741
COLO,432,HUB,6120 SOUTH MEADOWS DRIVE,GROVE CITY,OH,43123,39.8373934,-83.08450741
GPOX,433,STATION,6840 PONTIUS ROAD,GROVEPORT,OH,43125,39.83061925,-82.89499003
TOLL,435,HUB LOCAL,100 J Street,PERRYSBURG,OH,43551,41.562642,-83.623669
TOLE,436,HUB,100 J Street,PERRYSBURG,OH,43551,41.562642,-83.623669
ZANE,437,STATION,8705 COMMERCE DRIVE,CAMBRIDGE,OH,43725,39.9808489,-81.5775609
ETRS,438,STATION,9677 TOLLGATE ROAD SW,ETNA,OH,43062,39.95228074,-82.70381902
ETNC,439,STATION,9677 TOLLGATE ROAD SW,ETNA,OH,43062,39.95228074,-82.70381902
ECLE,440,STATION,2050 E. AURORA ROAD,TWINSBURG,OH,44087,41.30848705,-81.46534006
CLEV,441,STATION,3201 COLUMBIA ROAD,RICHFIELD,OH,44286,41.27687492,-81.62671282
RIFD,442,SUBSTATION,3245 HENRY ROAD ,RICHFIELD,OH,44286,41.27686499,-81.62237062
ETNA,444,ANNEX,11176 NATIONAL ROAD SW,ETNA,OH,43062,39.95718638,-82.69975545
YOUN,445,STATION,12305 BAILEY COURT EAST,NORTH JACKSON,OH,44451,41.1093462,-80.8832638
NCAN,447,STATION,8495 PORT JACKSON AVE. NW,NORTH CANTON,OH,44720,40.9043996,-81.4479836
TOLX,448,ANNEX,7401 FREMONT PIKE,PERRYSBURG TOWNSHIP,OH,43551,41.5189119,-83.537002
MANS,449,STATION,515 URWIN PARKWAY,MANSFIELD,OH,44906,40.7655318,-82.6144072
NCIN,450,STATION,325 HOMAN ROAD,LEBANON,OH,45036,39.4002369,-84.2176697
CINC,452,STATION,9667 INTER-OCEAN DRIVE,CINCINNATI,OH,45246,39.313465,-84.4768173
SDAY,453,STATION,8650 BYERS ROAD,MIAMISBURG,OH,45342,39.6232672,-84.2359234
DAYT,454,STATION,795 DEER RUN ROAD,VANDALIA,OH,45377,39.90864605,-84.18398035
CHIL,456,STATION,1415 INDUSTRIAL DRIVE,CHILLICOTHE,OH,45601,39.36080206,-83.00122359
NIND,461,STATION,10301 BENNETT PARKWAY,ZIONSVILLE,IN,46077,39.93611765,-86.24738267
INDI,462,STATION,4111 PRODUCERS DRIVE,INDIANAPOLIS,IN,46218,39.80299462,-86.09421712
MUNS,463,STATION,"101 45TH STREET, UNIT 2",MUNSTER,IN,46321,41.5439834,-87.5234527
HAMM,464,STATION,1515 GOSTLIN STREET,HAMMOND,IN,46327,41.63229544,-87.49256576
INDX,465,STATION,8951 MIRABEL ROAD,INDIANAPOLIS,IN,46241,39.6811615,-86.32235023
SOBD,466,STATION,5115 DYLAN DRIVE,SOUTH BEND,IN,46628,41.7442256,-86.3313954
FTWA,468,STATION,10905 GATEWAY BLVD,NEW HAVEN,IN,46774,41.0677933,-84.9984848
KOKO,469,STATION,2360 E NORTH STREET,KOKOMO,IN,46901,40.498203,-86.126863
GRNW,472,HUB LOCAL,2157 STACIES WAY,GREENWOOD,IN,46143,39.5962061,-86.0576342
MUNX,473,ANNEX,101 45TH STREET,MUNSTER,IN,46321,41.54299908,-87.5238926
GRWD,474,HUB,2157 STACIES WAY,GREENWOOD,IN,46143,39.5962061,-86.0576342
EVAN,477,STATION,15200 HIGHWAY 41 N,EVANSVILLE,IN,47725,38.1169306,-87.5538787
TERR,478,STATION,2501 S. SYCAMORE TERRACE ST.,TERRE HAUTE,IN,47803,39.43798,-87.341958
LAFA,479,STATION,3815 DAVID HOWARTH DRIVE,LAFAYETTE,IN,47909,40.3631341,-86.8335645
PONT,480,STATION,1601 BROWN ROAD,LAKE ORION,MI,48359,42.7096295,-83.2676064
ANAR,481,STATION,6700 SOUTH STATE ROAD,SALINE,MI,48176,42.1914081,-83.7390053
DETR,482,STATION,38401 AMRHEIN ROAD,LIVONIA,MI,48150,42.37431977,-83.42243176
OKPA,483,STATION,21200 GREENFIELD ROAD,OAK PARK,MI,48237,42.44872131,-83.20047371
STHE,484,STATION,6100 SIMS DRIVE,STERLING HEIGHTS,MI,48313,42.58879093,-83.04793408
SAGI,486,STATION,3887 E WASHINGTON RD,SAGINAW,MI,48601,43.45061022,-83.87971488
BELV,487,ANNEX,41775 ECORSE ROAD,BELLEVILLE,MI,48111,42.2485172,-83.4803312
LANS,489,STATION,2290 S CANAL ROAD,LANSING,MI,48917,42.70952935,-84.66487277
KALA,490,STATION,6701 PORTAGE ROAD,PORTAGE,MI,49002,42.21944459,-85.55993852
VBRS,493,STATION,42050 ECORSE ROAD,VAN BUREN TWP,MI,48111,42.24920135,-83.454152
VBRN,494,STATION,42050 ECORSE ROAD,VAN BUREN CHARTER TWP,MI,48111,42.24920135,-83.454152
GRDR,495,STATION,3466 SHIPPERS DRIVE NW,GRAND RAPIDS,MI,49544,43.0281609,-85.7208346
CADC,496,STATION,3699 CARIBOU TRAIL,CADILLAC,MI,49601,44.2722287,-85.4788065
GAYL,497,STATION,1748 WOLVERINE PARKWAY,GAYLORD,MI,49735,45.00699955,-84.71855543
ESCA,498,STATION,2502 NORTH 30TH STREET,ESCANABA,MI,49829,45.77857715,-87.08784822
DESM,503,STATION,2900 SW BROOKSIDE DRIVE,GRIMES,IA,50111,41.682563,-93.8048125
MACI,504,STATION,1755 15TH STREET SW,MASON CITY,IA,50401,43.13739451,-93.22759498
FTDO,505,STATION,3425 MAPLE DRIVE,FORT DODGE,IA,50501,42.4990043,-94.1405012
WATL,507,STATION,2320 WEST AIRLINE HIGHWAY,WATERLOO,IA,50703,42.54205114,-92.38377635
SIOU,511,STATION,5411 AL HAYNES DRIVE,SIOUX CITY,IA,51111,42.4096774,-96.3737047
SPEN,513,STATION,1454 255TH AVE N,SPIRIT LAKE,IA,51360,43.4361825,-95.08118
DUBU,520,STATION,1590 INNOVATION DRIVE,DUBUQUE,IA,52002,42.49530344,-90.76955329
SCED,524,STATION,985 CAPITAL DRIVE SW,CEDAR RAPIDS,IA,52404,41.8869272,-91.6817066
OTTU,525,STATION,14491 TERMINAL AVENUE,OTTUMWA,IA,52501,41.10599915,-92.4369996
NMIL,530,STATION,N96 W14849 COUNTY LINE ROAD,MENOMONEE FALLS,WI,53051,43.1900942,-88.0958767
NEBL,531,STATION,16555 WEST ROGERS DRIVE,NEW BERLIN,WI,53151,43.00736799,-88.12374804
MILW,532,STATION,5300 INTERNATIONAL DRIVE,CUDAHY,WI,53110,42.951721,-87.877403
MDSN,537,STATION,7322 MANUFACTURERS DRIVE,MADISON,WI,53704,43.1617781,-89.3165356
OSHX,542,ANNEX,3600 MOSER STREET,OSHKOSH,WI,54901,44.06597112,-88.533024
GRBY,543,STATION,3383 SPIRIT WAY,GREEN BAY,WI,54304,44.4575918,-88.0920606
WAUS,544,STATION,1000 NORTH PARK VIEW CIRCLE,MOSINEE,WI,54455,44.790802,-89.6629899
EAGL,545,STATION,620 COMMERCE LOOP,EAGLE RIVER,WI,54521,45.9117126,-89.2407909
LACR,546,STATION,3251 BERLIN DRIVE,LA CROSSE,WI,54601,43.8814348,-91.1680518
EAUC,547,STATION,2435 PROSPECT DRIVE,EAU CLAIRE,WI,54703,44.8454845,-91.5446146
OSHK,549,STATION,1755 WEST FERNAU AVENUE,OSHKOSH,WI,54901,44.05729414,-88.56450085
OSSE,550,STATION,8450 REVERE LANE NORTH,OSSEO,MN,55369,45.1065747,-93.4101302
SPLL,551,HUB LOCAL,7 LONG LAKE ROAD,SAINT PAUL,MN,55115,45.0348247,-92.9764196
STPL,552,HUB,7 LONG LAKE ROAD,SAINT PAUL,MN,55115,45.0348247,-92.9764196
MPGR,553,STATION,19705 ROGERS DRIVE,ROGERS,MN,55374,45.18034585,-93.52674036
MINN,554,STATION,5800 12TH AVENUE EAST,SHAKOPEE,MN,55379,44.7849799,-93.4752412
NBNC,555,STATION,50 14TH STREET NW,SAINT PAUL,MN,55112,45.0727743,-93.1897451
MAHT,556,SUBSTATION,3050 ECHO LAKE AVE,MAHTOMEDI,MN,55115,45.036602,-92.973907
NBRI,557,SUBSTATION,50 14TH STREET NW,SAINT PAUL,MN,55112,45.0727743,-93.1897451
DULU,558,STATION,2929 HALVOR LANE,SUPERIOR,WI,54880,46.7250684,-92.1257783
RCST,559,STATION,2427 HENRY ROAD NW,STEWARTVILLE,MN,55976,43.8768577,-92.4978441
MANK,560,STATION,1730 ENERGY DRIVE,MANKATO,MN,56001,44.1821558,-93.9317294
WILL,562,STATION,"1611 TROTT AVENUE, SW",WILLMAR,MN,56201,45.1169284,-95.0669926
STCL,563,STATION,730 60TH STREET SOUTH,SAINT CLOUD,MN,56301,45.4695736,-94.1262961
BRND,564,STATION,1701 THIESSE DRIVE,BRAINERD,MN,56401,46.3247096,-94.1869861
BEMI,566,STATION,2401 CRAM AVE SE,BEMIDJI,MN,56601,47.4381935,-94.852329
SFLX,570,SUBSTATION,5051 W FOUNDATION COURT,SIOUX FALLS,SD,57107,43.622399,-96.7789499
SFLS,571,STATION,4401 EAST PRODUCER LANE,SIOUX FALLS,SD,57104,43.597532,-96.672841
WATR,572,STATION,711 43RD ST SE,WATERTOWN,SD,57201,44.915992,-97.045705
PIER,575,STATION,3815 AIRPORT ROAD,PIERRE,SD,57501,44.38205471,-100.303182
RAPC,577,STATION,3514 GALT COURT,RAPID CITY,SD,57701,44.1080886,-103.1575391
FARG,581,STATION,1425 47TH STREET NORTH,FARGO,ND,58102,46.89646344,-96.86879357
GRFK,582,STATION,2001 S. 48th STREET,GRAND FORKS,ND,58201,47.911146,-97.098983
MSLX,583,ANNEX,8190 EL WAY,MISSOULA,MT,59801,46.93569818,-114.1106653
BISM,585,STATION,4001 APPLE CREEK ROAD,BISMARCK,ND,58504,46.794565,-100.730989
DCKN,586,STATION,11125 30G ST SW,DICKINSON,ND,58601,46.9768507,-102.7953872
MINO,587,STATION,3900 6TH STREET NE,MINOT,ND,58703,48.249061,-101.284597
WILS,588,STATION,513 ENERGY STREET,WILLISTON,ND,58801,48.2325678,-103.6148237
BLGL,590,HUB LOCAL,3605 HESPER ROAD,BILLINGS,MT,59102,45.74072396,-108.6008367
BILL,591,HUB,3605 HESPER ROAD,BILLINGS,MT,59102,45.74072396,-108.6008367
MILE,592,STATION,3620 VALLEY DRIVE EAST,MILES CITY,MT,59301,46.4175188,-105.829013
HLNA,593,STATION,876 BLAINE STREET,HELENA,MT,59601,46.594926,-111.994303
GRFA,594,STATION,6401 18TH AVENUE NORTH,GREAT FALLS,MT,59405,47.5248112,-111.2370373
GLAS,595,STATION,101 11TH STREET SOUTH,GLASGOW,MT,59230,48.197098,-106.64517
BZMN,596,STATION,225 LAURA LOUISE LANE,BOZEMAN,MT,59718,45.7027599,-111.1884202
BTTE,597,STATION,78 BASIN CREEK RD,BUTTE,MT,59701,45.92492496,-112.5079739
MSLA,598,STATION,5001 CURLEW COURT,MISSOULA,MT,59808,46.920818,-114.076808
KALI,599,STATION,165 SCHOOLHOUSE LOOP,KALISPELL,MT,59901,48.1405162,-114.273078
LOOP,600,STATION,1901 WEST 29TH  STREET,CHICAGO,IL,60608,41.83895845,-87.67314022
CRLS,601,STATION,205 DELLA COURT,CAROL STREAM,IL,60188,41.89278103,-88.1228809
WHLG,602,STATION,1430 SOUTH WOLF ROAD,WHEELING,IL,60090,42.10723255,-87.910092
NCHG,603,STATION,1260 ROWENA ROAD,GRAYSLAKE,IL,60030,42.3236815,-88.0334046
CHIC,604,HUB,6833 WEST 75TH STREET,CHICAGO,IL,60638,41.7580503,-87.6364926
BFPK,605,STATION,5151 WEST 73RD STREET,CHICAGO,IL,60638,41.7617225,-87.63458
MCCK,606,STATION,9500 SERGO DRIVE,LA GRANGE,IL,60525,41.7960314,-87.85257335
NILE,607,STATION,5959 WEST HOWARD STREET,NILES,IL,60714,42.01734705,-87.77342691
SCHG,608,STATION,920 W. TAYLOR RD,ROMEOVILLE,IL,60446,41.628273,-88.1078856
ECRL,609,STATION,175 DELLA COURT,CAROL STREAM,IL,60188,41.89276285,-88.12255151
MOKE,610,STATION,8965 WEST 187TH ST,MOKENA,IL,60448,41.5504781,-87.8436035
RKFD,611,STATION,5460 BAXTER ROAD,ROCKFORD,IL,61109,42.1678491,-89.0855813
RKIS,612,STATION,7800 TURKEY HOLLOW RD,ROCK ISLAND,IL,61201,41.443986,-90.643705
EWHG,613,STATION,928-960 S WOLF ROAD,WHEELING,IL,60090,42.1220152,-87.910096
PEOR,616,STATION,500 E. HIGHLAND,MORTON,IL,61550,40.6319728,-89.4542745
LCHX,617,ANNEX,4105 FIELDSTONE ROAD,CHAMPAIGN,IL,61822,40.11383082,-88.31110994
LCHA,618,HUB LOCAL,102 MERCURY DRIVE,CHAMPAIGN,IL,61822,40.149419,-88.235916
CHAM,619,HUB,102 MERCURY DRIVE,CHAMPAIGN,IL,61822,40.149419,-88.235916
RONC,621,STATION,145 S PINNACLE DRIVE,ROMEOVILLE,IL,60446,41.61933869,-88.1136988
RORS,622,STATION,145 S PINNACLE DRIVE,ROMEOVILLE,IL,60446,41.61933869,-88.1136988
QUIN,623,STATION,4300 LONE TREE DRIVE,QUINCY,IL,62305,39.948963,-91.3477534
EFHM,624,STATION,1700 HEARTLAND BOULEVARD,EFFINGHAM,IL,62401,39.1069616,-88.5661198
KOKE,626,SUBSTATION,3050 S KOKE MILL RD,SPRINGFIELD,IL,62711,39.75772852,-89.71522122
SPIL,627,STATION,2951 GRANGER DRIVE,SPRINGFIELD,IL,62707,39.84252265,-89.59786196
MARN,629,STATION,10711 MARK TWAIN ROAD,WEST FRANKFORT,IL,62896,37.90289,-88.953502
WSTO,630,STATION,8462 DELPORT DRIVE,SAINT LOUIS,MO,63114,38.69518986,-90.34173271
STLO,631,STATION,1525 WOODSON ROAD,SAINT LOUIS,MO,63114,38.6811597,-90.35717363
SSTO,632,STATION,1602 VINCENT DRIVE,SAUGET,IL,62206,38.5871438,-90.157545
NSTO,633,STATION,9000 PREMIER PARKWAY SOUTH,SAINT PETERS,MO,63376,38.8069025,-90.5966117
SIKE,638,STATION,2751 NORTH MAIN,SIKESTON,MO,63801,36.8877745,-89.5828519
NKCM,640,STATION,4029 N PLEASANT AVE,BIRMINGHAM,MO,64161,39.1738453,-94.4205296
LNXA,641,HUB,8000 COLE PARKWAY,LENEXA,KS,66227,38.9839425,-94.8603285
LNXL,642,HUB LOCAL,8000 COLE PARKWAY,LENEXA,KS,66227,38.9839425,-94.8603285
KCML,643,HUB LOCAL,12501 NE 40TH ST,KANSAS CITY,MO,64161,39.165635,-94.434612
KCMO,644,HUB,12501 NE 40TH ST,KANSAS CITY,MO,64161,39.165635,-94.434612
STJO,645,STATION,5501 PROVIDENCE HILL DRIVE,SAINT JOSEPH,MO,64507,39.736449,-94.7719093
BRKF,646,STATION,110 STANBURY INDUSTRIAL DR,BROOKFIELD,MO,64628,39.776187,-93.089596
JOPL,648,STATION,3752 ENTERPRISE AVENUE,JOPLIN,MO,64801,37.12070785,-94.46289422
JEFF,651,STATION,2210 MAGUIRE BLVD,COLUMBIA,MO,65201,38.926136,-92.2898571
ROLL,654,STATION,4600 DURWOOD BLVD,ROLLA,MO,65401,37.98991245,-91.73017408
SPMO,658,STATION,2700 N. MULROY ROAD,STRAFFORD,MO,65757,37.243805,-93.1821154
NKNC,659,STATION,4029 N PLEASANT AVE,KANSAS CITY,MO,64161,39.1742558,-94.4221253
OLAT,660,STATION,22525 W. 167TH STREET,OLATHE,KS,66062,38.82384415,-94.84659845
EOLA,662,STATION,22161 WEST 167TH ST,OLATHE,KS,66062,38.823954,-94.84215955
TOPK,665,STATION,7105 SE FORBES AVE,TOPEKA,KS,66619,38.9394466,-95.6827094
WICH,672,STATION,5180 N INDUSTRY RD,WICHITA,KS,67226,37.7778777,-97.218874
COFF,673,STATION,2143 ENTERPRISE DRIVE,INDEPENDENCE,KS,67301,37.23065014,-95.73284014
SALI,674,STATION,3660 SCANLAN AVENUE,SALINA,KS,67401,38.805322,-97.6364274
HAYS,676,STATION,1928 HIGHWAY 40,HAYS,KS,67601,38.860488,-99.30546
COBY,677,NFS,1285 ZELFER AVENUE,COLBY,KS,67701,39.370358,-101.0583018
DODG,678,STATION,103 ALLEN ROAD,DODGE CITY,KS,67801,37.7732643,-99.9427531
COBF,681,STATION,4406 SOUTH 19TH STREET,COUNCIL BLUFFS,IA,51501,41.21530511,-95.872146
COBX,682,ANNEX,4406 SOUTH 19TH STREET,COUNCIL BLUFFS,IA,51501,41.21530511,-95.872146
COXX,683,ANNEX,1209 31ST AVE,COUNCIL BLUFFS,IA,51501,41.22941093,-95.86264137
LINC,685,STATION,6330 MCCORMICK DRIVE,LINCOLN,NE,68507,40.87671384,-96.63202532
NRFK,687,STATION,1310 NORTH 1ST ST,NORFOLK,NE,68701,42.04788665,-97.40696564
GRIS,688,STATION,4201 GOLD CORE DRIVE,GRAND ISLAND,NE,68801,40.870215,-98.3696915
NOPL,691,STATION,4525 TWIN RIVERS RD,NORTH PLATTE,NE,69101,41.0944796,-100.7319808
SCOT,693,STATION,250317 SKYPORT DRIVE,SCOTTSBLUFF,NE,69361,41.8658921,-103.5882103
OTDV,694,STATION,37-18 57TH STREET,FLUSHING,NY,11377,40.7500184,-73.9056926
NEWO,701,STATION,310 EAST JAMES DRIVE,SAINT ROSE,LA,70087,29.9885649,-90.2813062
COVI,704,STATION,450 NORTHPOINTE COURT,COVINGTON,LA,70433,30.4736069,-90.1906251
LFYT,705,STATION,3600 NE EVANGELINE THROUGHWAY,CARENCRO,LA,70520,30.3124769,-92.0292711
LACH,706,STATION,6013 HORSEMANS DRIVE,LAKE CHARLES,LA,70615,30.2275439,-93.125552
BATO,708,STATION,10800 S. REITZ AVENUE,BATON ROUGE,LA,70809,30.3873542,-91.0671757
SHPT,711,STATION,4515 MARLENA STREET,BOSSIER CITY,LA,71111,32.54759793,-93.68770275
MONR,712,STATION,6928 MILLHAVEN ROAD,MONROE,LA,71203,32.4966803,-92.0120903
ALLA,713,STATION,530 VANDENBURG DRIVE,ALEXANDRIA,LA,71303,31.3074846,-92.528143
ELDO,717,STATION,174 COMMERCE DRIVE,EL DORADO,AR,71730,33.2382818,-92.6288135
TXAR,718,STATION,3900 ABERNATHY DRIVE,TEXARKANA,AR,71854,33.44025375,-93.9973867
HOSP,719,STATION,575 MID AMERICA BLVD,HOT SPRINGS NATIONAL PARK,AR,71913,34.5176381,-93.1168937
LROK,722,STATION,8 INDUSTRIAL PARK WAY,MABELVALE,AR,72103,34.6432997,-92.4030609
JONE,724,STATION,3400 MOORE ROAD,JONESBORO,AR,72401,35.79660265,-90.61581454
HARR,726,STATION,5420 HIGHWAY 65 SOUTH,HARRISON,AR,72601,36.1883403,-93.0304541
FYTV,727,STATION,400 N. GOAD SPRINGS ROAD,LOWELL,AR,72745,36.2612101,-94.155383
FTSM,729,STATION,4501 INDUSTRIAL DR,FORT SMITH,AR,72916,35.3230689,-94.3855747
WEAT,730,STATION,4720 S FRONTAGE RD,WEATHERFORD,OK,73096,35.535273,-98.660617
OKLA,731,STATION,2701 SOUTHWEST 18TH ST,OKLAHOMA CITY,OK,73108,35.446533,-97.561887
NOKC,732,STATION,14748 N LINCOLN BLVD,EDMOND,OK,73013,35.62289359,-97.50480922
ENID,737,STATION,302 N. 54TH STREET,ENID,OK,73701,36.3995049,-97.801125
BKAR,740,STATION,1214 E HOUSTON STREET,BROKEN ARROW,OK,74012,36.046541,-95.77597
TULS,741,STATION,12615 EAST APACHE STREET NORTH,TULSA,OK,74116,36.1927967,-95.8348892
LUBX,743,ANNEX,4201 MARTIN L KING BLVD,LUBBOCK,TX,79404,33.5555224,-101.8172112
MCAL,745,STATION,2820 W. STATE HIGHWAY 31,MCALESTER,OK,74501,34.9284927,-95.8240936
SFTW,748,STATION,6601 OAK GROVE,FORT WORTH,TX,76134,32.650341,-97.304207
FRIS,749,STATION,15815 EXECUTIVE DRIVE,FRISCO,TX,75033,33.2076767,-96.8052278
SHER,750,STATION,3221 NORTHGATE DRIVE,SHERMAN,TX,75092,33.5961377,-96.61729281
LDAL,751,HUB LOCAL,1101 E. CLEVELAND ROAD,HUTCHINS,TX,75141,32.6411954,-96.7394677
IRVG,752,STATION,3215 SPUR 482,IRVING,TX,75062,32.84228539,-96.89999435
DALL,753,HUB,1101 E. CLEVELAND ROAD,HUTCHINS,TX,75141,32.6411954,-96.7394677
QRUN,754,STATION,1901 JOEL EAST ROAD,FORT WORTH,TX,76140,32.64568733,-97.29580167
MESQ,755,STATION,5005 SAMUELL BLVD,MESQUITE,TX,75149,32.79489505,-96.6742676
WDAL,756,STATION,3901 ADLER DRIVE,DALLAS,TX,75211,32.7619364,-96.8955438
TYLR,757,STATION,800 LINDALE INDUSTRIAL PARKWAY,TYLER,TX,75706,32.46421575,-95.42538395
WDNC,758,STATION,3901 ADLER DRIVE,DALLAS,TX,75211,32.7619364,-96.8955438
LUFK,759,STATION,3402 ELLEN TROUT DRIVE,LUFKIN,TX,75904,31.3721157,-94.73533674
FTWO,760,HUB,4901 Village Creek Road,FORT WORTH,TX,76119,32.6913399,-97.24807836
FTWL,761,HUB LOCAL,4901 VILLAGE CREEK ROAD,FORT WORTH,TX,76119,32.6913399,-97.24807836
NFTW,762,STATION,2701 TEXAS LONGHORN WAY,FORT WORTH,TX,76177,32.99766865,-97.30648574
WIFS,763,STATION,2950 MIDWESTERN PKWY E,WICHITA FALLS,TX,76302,33.876006,-98.476058
ARLN,764,STATION,2251 E BARDIN ROAD,ARLINGTON,TX,76018,32.6721718,-97.0915278
SDRS,765,STATION,3800 CEDARDALE ROAD,DALLAS,TX,75241,32.64415154,-96.75923488
BRYX,766,ANNEX,3205 LONGMIRE DR,COLLEGE STATION,TX,77840,30.58765769,-96.29021864
WACO,767,STATION,685 ALLIANCE PARKWAY,HEWITT,TX,76643,31.46488096,-97.17461866
HUMB,768,ANNEX,1517 GREENS RD,HOUSTON,TX,77032,29.9512141,-95.353444
SANG,769,STATION,949 GATEWAY DRIVE,SAN ANGELO,TX,76905,31.4732815,-100.3812077
SPRG,770,STATION,21200 SPRING PLAZA DRIVE,SPRING,TX,77388,30.0742712,-95.4421591
HOUL,771,HUB LOCAL,8787 W GRAND PARKWAY N,CYPRESS,TX,77433,29.8014447,-95.7749861
NHOU,772,STATION,6410 W. SAM HOUSTON PARKWAY N.,HOUSTON,TX,77041,29.86283416,-95.56430955
SUGR,773,STATION,233 CRAVENS  ROAD,MISSOURI CITY,TX,77489,29.627197,-95.5302169
HOUS,774,HUB,8787 W GRAND PARKWAY N,CYPRESS,TX,77433,29.8014447,-95.7749861
SHOU,775,STATION,6903 EAST OREM DRIVE,HOUSTON,TX,77075,29.6276034,-95.3827077
BMNT,776,STATION,1850 COMMERCE PKY,BEAUMONT,TX,77707,30.0547365,-94.1470504
EHOU,777,STATION,14545 HEATHROW FOREST PARKWAY,HOUSTON,TX,77032,29.93121106,-95.32535899
BRYN,778,STATION,2799 NORTH EARL RUDDER FREEWAY,BRYAN,TX,77803,30.719548,-96.408358
VCTR,779,STATION,6509 LONE TREE ROAD,VICTORIA,TX,77905,28.8113353,-96.93790048
LRDO,780,STATION,1211 BELTWAY PARKWAY,LAREDO,TX,78045,27.6795466,-99.4795973
WSAN,781,STATION,6808 ASCOT PARK DRIVE,SAN ANTONIO,TX,78238,29.4552126,-98.6147321
SANA,782,STATION,9935 DOERR LANE,SCHERTZ,TX,78154,29.615778,-98.29429586
KYLE,783,ANNEX,300 VISTA RIDGE DRIVE,KYLE,TX,78640,30.0383027,-97.850527
CORP,784,STATION,246 GLASSON DRIVE,CORPUS CHRISTI,TX,78406,27.7801926,-97.5031177
EDIN,785,STATION,502 INDEPENDENCE DRIVE,EDINBURG,TX,78541,26.3731966,-98.150414
SAUS,786,STATION,4117 MCKINNEY FALLS PARKWAY,AUSTIN,TX,78744,30.19335593,-97.69708763
AUST,787,STATION,15904 IMPACT WAY,PFLUGERVILLE,TX,78660,30.4170752,-97.59141955
UVAL,788,STATION,72 LOU STROUP DRIVE,UVALDE,TX,78801,29.21700061,-99.75112387
SDNC,790,STATION,3800 CEDARDALE ROAD,DALLAS,TX,75241,32.64415154,-96.75923488
AMAR,791,STATION,6671 EAST I-40,AMARILLO,TX,79118,35.194188,-101.7642936
ARLX,792,ANNEX,4901 VILLAGE CREEK ROAD,FORT WORTH,TX,76119,32.6913399,-97.24807836
ALRS,793,STATION,505 ALDINE BENDER RD,HOUSTON,TX,77060,29.93198859,-95.38909282
LUBB,794,STATION,5831 ELM AVENUE,LUBBOCK,TX,79404,33.54113288,-101.831295
ESAN,795,SUBSTATION,2002 CORNER RIDGE,SAN ANTONIO,TX,78219,29.448573,-98.3913282
ABIL,796,STATION,801 NORTH ARNOLD BLVD,ABILENE,TX,79603,32.45968515,-99.8076344
MIDL,797,STATION,3900 S CR 1276,MIDLAND,TX,79706,31.9229547,-102.211192
FTST,798,STATION,601 MARTIN ADAMS,FORT STOCKTON,TX,79735,30.8877667,-102.8443564
ELPA,799,STATION,11501 WILKINSON DRIVE,EL PASO,TX,79936,31.743041,-106.312157
ENGL,801,STATION,14257 EAST EASTER AVENUE,ENGLEWOOD,CO,80112,39.5889328,-104.8230638
DENV,802,HUB,8951 YOSEMITE STREET,HENDERSON,CO,80640,39.8594904,-104.886485
DENL,803,HUB LOCAL,8951 YOSEMITE STREET,HENDERSON,CO,80640,39.8594904,-104.886485
KREM,804,STATION,1505 TYLER AVENUE,KREMMLING,CO,80459,40.0519909,-106.3761118
FTCO,805,STATION,3870 RONALD REAGAN BOULEVARD,JOHNSTOWN,CO,80534,40.4022068,-104.9622654
BLDR,806,STATION,12405 W. 112TH AVE,BROOMFIELD,CO,80021,39.9001025,-105.078212
FTMO,807,STATION,2929 E PLATTE AVE,FORT MORGAN,CO,80701,40.2540062,-103.8013365
CSPR,809,STATION,125 TROY HILL ROAD,COLORADO SPRINGS,CO,80916,38.8339059,-104.7225634
PBLO,810,STATION,150 GREENHORN DRIVE,PUEBLO,CO,81004,38.20446104,-104.6291502
ALAM,811,STATION,2300 COMMERCE CIRCLE,ALAMOSA,CO,81101,37.447561,-105.869322
BNVA,812,STATION,481 GREGG DRIVE,BUENA VISTA,CO,81211,38.8251054,-106.1371645
GUNN,813,SUBSTATION,49 BASIN PARK DRIVE,GUNNISON,CO,81230,38.5278494,-106.9428896
MTRS,814,STATION,2325 AIR PARK WAY,MONTROSE,CO,81401,38.49979644,-107.9037939
GJCT,815,STATION,715 23 RD,GRAND JUNCTION,CO,81505,39.10693915,-108.6290826
GLEN,816,STATION,3923 COUNTY ROAD 154,GLENWOOD SPRINGS,CO,81601,39.4846751,-107.2961029
EGLE,817,STATION,332 PLANE STREET,GYPSUM,CO,81637,39.636733,-106.913899
CETN,818,STATION,14250 GRASSLANDS DRIVE,ENGLEWOOD,CO,80112,39.5629035,-104.8229149
NAUR,819,STATION,20431 EAST 35TH DRIVE,AURORA,CO,80011,39.76371455,-104.7499419
CHEY,820,STATION,8417 TRUCKER TRL,CHEYENNE,WY,82007,41.1405947,-104.7006014
WDEV,821,SUBSTATION,1105 W 48TH AVENUE,DENVER,CO,80221,39.78387792,-105.000544
JHST,822,SUBSTATION,3867 RONALD REAGAN BOULEVARD,JOHNSTOWN,CO,80534,40.40348529,-104.9603747
NDRS,823,STATION,7450 CLAYTON STREET,DENVER,CO,80229,39.7738901,-104.9541559
CODY,824,STATION,701 33rd STREET,CODY,WY,82414,44.5426808,-109.0307605
RIVT,825,STATION,4551 AIRPORT RD,RIVERTON,WY,82501,43.05390643,-108.4526162
CASP,826,STATION,2962 SALT CREEK PARKWAY,CASPER,WY,82601,42.8608834,-106.3574539
GLTE,827,STATION,3841 GARMAN ROAD,GILLETTE,WY,82716,44.3328389,-105.520781
SHRD,828,STATION,1901 KROE LANE,SHERIDAN,WY,82801,44.799143,-106.9365894
ROSP,829,STATION,2830 KILLPECKER DRIVE,ROCK SPRINGS,WY,82901,41.62915079,-109.2391773
EVST,831,SUBSTATION,26 ALLEGIANCE CIRCLE,EVANSTON,WY,82930,41.26071943,-110.9937206
POCA,832,STATION,7121 SOUTH 5TH AVENUE,POCATELLO,ID,83204,42.8139234,-112.3787877
TWFA,833,STATION,382 AMERICAN AVENUE,JEROME,ID,83338,42.65726724,-114.4545427
REXB,834,STATION,594 N 4062 E,RIGBY,ID,83442,43.7129102,-111.8896675
LEWI,835,STATION,1121 WALL STREET,LEWISTON,ID,83501,46.4325916,-117.0161457
BOIS,837,STATION,6610 SOUTH ELITE DRIVE,BOISE,ID,83716,43.5422094,-116.1873147
SDPT,838,STATION,195 MCNEARNEY ROAD,PONDERAY,ID,83852,48.3107106,-116.5354367
MCCL,839,STATION,13873 HIGHWAY 55,MCCALL,ID,83638,44.8386008,-116.0865521
VERN,840,STATION,1127 EAST 1000 SOUTH,VERNAL,UT,84078,40.4415385,-109.5067058
SALT,841,HUB,750 NORTH FRANKLIN PARKWAY,NORTH SALT LAKE,UT,84054,40.8567001,-111.9170366
SALL,842,HUB LOCAL,750 NORTH FRANKLIN PARKWAY,NORTH SALT LAKE,UT,84054,40.8567001,-111.9170366
LOGN,843,STATION,1555 NORTH 1000 WEST,LOGAN,UT,84321,41.7608605,-111.8587968
OVGS,844,NFS,5420 2100 S,WEST VALLEY CITY,UT,84120,40.725735,-111.9713693
PRVO,846,STATION,526 EAST 1750 NORTH,VINEYARD,UT,84058,40.3290608,-111.7396549
HURR,847,STATION,5698 W. 155 NORTH,HURRICANE,UT,84737,37.1686838,-113.4230099
RCHF,848,STATION,603 WEST 1550 SOUTH,SALINA,UT,84654,38.9364995,-111.8700401
NPHO,849,STATION,23000 N 7TH AVENUE,PHOENIX,AZ,85027,33.6699241,-112.0829696
PHOE,850,HUB,3410 SOUTH 51ST AVENUE,PHOENIX,AZ,85043,33.41707465,-112.1717347
PHOL,851,HUB LOCAL,3410 SOUTH 51ST AVENUE,PHOENIX,AZ,85043,33.41707465,-112.1717347
TMPE,852,STATION,1666 N. MCCLINTOCK DRIVE,TEMPE,AZ,85281,33.44732321,-111.9094536
YUMA,853,STATION,7685 E. 30TH STREET,YUMA,AZ,85365,32.6739888,-114.478263
LHVU,854,STATION,2041 KIOWA BOULEVARD N.,LAKE HAVASU CITY,AZ,86403,34.50506809,-114.3421096
SAFF,855,SUBSTATION,1735 WEST 1ST STREET,SAFFORD,AZ,85546,32.8377592,-109.730749
SVST,856,STATION,4400 INDUSTRY DRIVE,SIERRA VISTA,AZ,85635,31.5656614,-110.2528931
TUCS,857,STATION,3350 E. WESTCO PL.,TUCSON,AZ,85756,32.1245129,-110.9221632
CHND,858,STATION,2650 EAST QUEEN CREEK RD,CHANDLER,AZ,85286,33.2642792,-111.7951846
SHLO,859,STATION,2701 E. ADAMS ST.,SHOW LOW,AZ,85901,34.2557896,-110.013003
FLAG,860,STATION,5700 S. PULLIAM DRIVE,FLAGSTAFF,AZ,86001,35.1437313,-111.678978
OGDN,861,STATION,750 NORTH FRANKLIN PARKWAY,NORTH SALT LAKE,UT,84054,40.8567001,-111.9170366
CVRD,862,SUBSTATION,3850 WEST CHERRY CREEK ROAD,CAMP VERDE,AZ,86322,34.6067426,-111.9221266
PRES,863,STATION,2980 CENTERPOINTE EAST DR,PRESCOTT,AZ,86301,34.63061976,-112.4106356
KING,864,STATION,2549 OATMAN ROAD,GOLDEN VALLEY,AZ,86413,35.1378361,-114.1103135
GLND,865,STATION,1095 SOUTH 4800 WEST,SALT LAKE CITY,UT,84104,40.747472,-112.0048561
WVCT,866,STATION,1455 SOUTH 5500 WEST,SALT LAKE CITY,UT,84104,40.73926664,-112.0220984
WPHO,867,STATION,801 S. 75TH AVE,PHOENIX,AZ,85043,33.445671,-112.221065
GDRS,869,STATION,890 S 143RD AVE,GOODYEAR,AZ,85338,33.4137761,-112.3663375
ALBQ,871,STATION,8000 DAYTONA ROAD,ALBUQUERQUE,NM,87121,35.087929,-106.737781
GDNC,872,STATION,890 S 143RD AVE,GOODYEAR,AZ,85338,33.4137761,-112.3663375
GDYR,873,STATION,890 S 143RD AVE,GOODYEAR,AZ,85338,33.4137761,-112.3663375
FARM,874,STATION,3000 PEPSI WAY,AZTEC,NM,87410,36.80890945,-108.0046486
SAFE,875,STATION,4700 HART ROAD,SANTA FE,NM,87507,35.627964,-106.073659
WVNC,877,STATION,1455 SOUTH 5500 WEST,SALT LAKE CITY,UT,84104,40.73926664,-112.0220984
WSPO,878,SUBSTATION,16621 E. EUCLID AVE,SPOKANE VALLEY,WA,99216,47.68384933,-117.18387
WELP,879,STATION,750 INDUSTRIAL ROAD,SANTA TERESA,NM,88008,31.8486536,-106.7120385
SSJO,880,SUBSTATION,1605 INDUSTRIAL AVE,SAN JOSE,CA,95112,37.3734851,-121.9015836
MODE,881,STATION,1215 E WHITMORE AVE,MODESTO,CA,95358,37.5949353,-120.9929068
ROSW,882,STATION,419 E. BRASHER ROAD,ROSWELL,NM,88203,33.35103288,-104.5228825
SHWO,883,STATION,13115 SW TUALATIN SHERWOOD RD,SHERWOOD,OR,97140,45.369034,-122.8419081
CSBD,885,STATION,903-F AIRPORT AVENUE,CARLSBAD,NM,88220,32.35564712,-104.2373582
NLRS,890,STATION,5265 N SLOAN LANE,LAS VEGAS,NV,89115,36.2586466,-115.043424
LASV,891,STATION,470 E. BRUNER AVE,HENDERSON,NV,89044,35.970164,-115.159117
NLSV,892,STATION,5265 N SLOAN LANE,LAS VEGAS,NV,89115,36.2586466,-115.043424
WDVR,893,SUBSTATION,1130 INDUSTRIAL WAY,WEST WENDOVER,NV,89883,40.733148,-114.064476
WNMC,894,SUBSTATION,980 WEST RAILROAD,WINNEMUCCA,NV,89445,40.9633172,-117.7382643
RENO,895,STATION,12501 MUSTANG ROAD,SPARKS,NV,89434,39.5150993,-119.6216623
KTNC,896,ANNEX,22114 76TH AVE SOUTH,KENT,WA,98032,47.4034192,-122.2379767
NPRD,897,STATION,751 NE COLUMBIA BLVD,PORTLAND,OR,97211,45.58016991,-122.6576631
ELKO,898,STATION,3225 RUBY VISTA DRIVE,ELKO,NV,89801,40.8615075,-115.7427652
LOSA,901,STATION,2600 EAST 28TH STREET,LOS ANGELES,CA,90058,34.01197817,-118.226717
COMM,902,STATION,5560 FERGUSON DRIVE,LOS ANGELES,CA,90022,34.01017769,-118.1531476
CRSX,904,ANNEX,18049 S WILMINGTON AVE,CARSON,CA,90746,33.86708136,-118.2356808
CRSN,905,STATION,1725 CHARLES WILLARD STREET,CARSON,CA,90746,33.86434157,-118.2362598
SFSP,906,STATION,11688 GREENSTONE AVENUE,SANTA FE SPRINGS,CA,90670,33.9254895,-118.0579883
CATI,907,NFS,1 AIRPORT ROAD,AVALON,CA,90704,33.4019831,-118.4147357
DBRS,909,STATION,21971 INDUSTRY WAY,CITY OF INDUSTRY,CA,91789,34.0188654,-117.8240113
ARCI,910,STATION,12369 LOWER AZUSA ROAD,ARCADIA,CA,91006,34.08819306,-118.0017532
BURB,915,STATION,12500 BRANFORD STREET,PACOIMA,CA,91331,34.2464407,-118.4022557
CHNL,916,HUB LOCAL,15020 FLIGHT AVENUE,CHINO,CA,91710,33.9759722,-117.6191943
CHIN,917,HUB,15020 FLIGHT AVENUE,CHINO,CA,91710,33.9759722,-117.6191943
IDSY,918,STATION,200 OLD RANCH ROAD,CITY OF INDUSTRY,CA,91789,34.0197139,-117.8360882
OCEA,919,STATION,1402 AVENIDA DEL ORO,OCEANSIDE,CA,92056,33.2059613,-117.2894538
OTAY,920,STATION,10132 Airway Road,SAN DIEGO,CA,92154,32.56026298,-116.9355733
SDGO,921,STATION,9999 OLSON DRIVE,SAN DIEGO,CA,92121,32.885853,-117.196216
PALM,922,STATION,411 WEST GARNET AVE,NORTH PALM SPRINGS,CA,92258,33.9027416,-116.5517278
RLTO,923,HUB,330 RESOURCE DRIVE,BLOOMINGTON,CA,92316,34.0421371,-117.374446
LRLT,924,HUB LOCAL,330 RESOURCE DRIVE,BLOOMINGTON,CA,92316,34.0421371,-117.374446
WRLT,925,STATION,11600 CACTUS AVE,BLOOMINGTON,CA,92316,34.043047,-117.3826022
SRNC,926,STATION,315 WEST RESOURCE DRIVE,BLOOMINGTON,CA,92316,34.0410229,-117.3781307
RLTX,927,ANNEX,315 WEST RESOURCE DRIVE,BLOOMINGTON,CA,92316,34.0410229,-117.3781307
ANAH,928,STATION,590 E ORANGE THORPE AVENUE,ANAHEIM,CA,92801,33.8590552,-117.9151872
CHHI,929,STATION,16142 FERN AVENUE,CHINO,CA,91708,33.96059672,-117.6550462
VENT,930,STATION,5198 COLT STREET,VENTURA,CA,93003,34.2500639,-119.2193674
BISH,932,STATION,375 AIRPORT ROAD,BISHOP,CA,93514,37.3705323,-118.365815
BKFD,933,STATION,3300 ENTERPRISE STREET,SHAFTER,CA,93263,35.4529369,-119.1952066
SMAR,934,STATION,1424 FAIRWAY DRIVE,SANTA MARIA,CA,93455,34.915197,-120.449203
LANC,935,STATION,385 GRAND CYPRESS AVENUE,PALMDALE,CA,93551,34.61378829,-118.1365232
STNC,936,STATION,6444 ARCH ROAD,STOCKTON,CA,95215,37.9051693,-121.2217253
FRES,937,STATION,3151 S. EAST AVE,FRESNO,CA,93725,36.68957039,-119.7728234
NPRS,938,STATION,751 NE COLUMBIA BLVD,PORTLAND,OR,97211,45.58016991,-122.6576631
SLIN,939,STATION,300 MANABE OW ROAD,WATSONVILLE,CA,95076,36.9058212,-121.7792013
FAIX,940,ANNEX,2950 CORDELIA RD,FAIRFIELD,CA,94534,38.2184229,-122.1127864
SFRN,941,STATION,1070 SAN MATEO AVE,SOUTH SAN FRANCISCO,CA,94080,37.6492967,-122.4090134
SACL,942,HUB LOCAL,8200 ELDER CREEK ROAD,SACRAMENTO,CA,95824,38.510481,-121.402345
FRMT,943,STATION,8333 CENTRAL AVENUE,NEWARK,CA,94560,37.51899185,-122.042767
STRS,944,STATION,6444 ARCH ROAD,STOCKTON,CA,95215,37.9051693,-121.2217253
FAIR,945,STATION,5191 FERMI DRIVE,FAIRFIELD,CA,94534,38.2038324,-122.1423507
OAKL,946,STATION,1400 BUSINESS CENTER DRIVE,SAN LEANDRO,CA,94577,37.711298,-122.1894723
HAYW,947,STATION,3596 BAUMBERG AVE,HAYWARD,CA,94545,37.61610204,-122.1021894
UKIA,949,STATION,1-B CAROUSEL LANE,UKIAH,CA,95482,39.2015897,-123.2024366
ESAX,950,ANNEX,8371 ROVANA CIRCLE,SACRAMENTO,CA,95828,38.50709699,-121.3926579
SJOS,951,STATION,696 E. TRIMBLE ROAD,SAN JOSE,CA,95131,37.3938231,-121.9164217
TRAL,952,HUB LOCAL,5655 HOOD WAY,TRACY,CA,95377,37.730987,-121.5088363
TRAC,953,HUB,5655 HOOD WAY,TRACY,CA,95377,37.730987,-121.5088363
SROS,954,STATION,500 CALETTI AVENUE,WINDSOR,CA,95492,38.51752955,-122.7892274
EURK,955,STATION,1385 8TH STREET,ARCATA,CA,95521,40.86963456,-124.0930716
ROSV,956,STATION,8501 FOOTHILLS BLVD,ROSEVILLE,CA,95747,38.78655775,-121.3104895
ESAC,957,STATION,8371 ROVANA CIRCLE,SACRAMENTO,CA,95828,38.50709699,-121.3926579
SACR,958,HUB,8200 ELDER CREEK ROAD,SACRAMENTO,CA,95824,38.510481,-121.402345
CHCO,959,STATION,101 BOOK FARM ROAD,DURHAM,CA,95938,39.6410139,-121.7219781
REDD,960,STATION,1497 GEORGE DRIVE,REDDING,CA,96003,40.6272555,-122.3733395
WPOR,961,STATION,6447 NORTH CUTTER CIRCLE,PORTLAND,OR,97217,45.57105845,-122.705406
LAVW,962,SUBSTATION,1564 NORTH 4TH STREET,LAKEVIEW,OR,97630,42.1932574,-120.3510693
SANJ,963,STATION,115 SALTSPRING DR,FRIDAY HARBOR,WA,98250,48.5374965,-123.0457893
BRKG,965,SUBSTATION,98212 E. BENHAM LANE,BROOKINGS,OR,97415,42.042324,-124.2496764
LCTY,970,STATION,2615 SE 23RD DRIVE,LINCOLN CITY,OR,97367,44.95126799,-124.0132041
PORL,971,HUB LOCAL,2460 N.W. SUNDIAL ROAD,TROUTDALE,OR,97060,45.5576535,-122.4025759
PORT,972,HUB,2460 N.W. SUNDIAL ROAD,TROUTDALE,OR,97060,45.5576535,-122.4025759
SALE,973,STATION,3935 AUMSVILLE HIGHWAY SE,SALEM,OR,97317,44.8980005,-122.9663217
EUGN,974,STATION,3200 CROSS STREET,EUGENE,OR,97402,44.06246067,-123.1446132
MEDF,975,STATION,555 FEDERAL WAY,CENTRAL POINT,OR,97502,42.3734943,-122.8892388
KLAM,976,STATION,6280 ALTAMONT DRIVE,KLAMATH FALLS,OR,97601,42.1885855,-121.7473994
BEND,977,STATION,20750 BRINSON BOULEVARD,BEND,OR,97701,44.08427431,-121.2880738
LGRD,978,STATION,2321 JEFFERSON AVENUE,LA GRANDE,OR,97850,45.31890577,-118.0769592
COOB,979,STATION,3333 OCEAN BLVD,COOS BAY,OR,97420,43.38390506,-124.2513587
NSEA,980,STATION,18795 NE 73RD STREET,REDMOND,WA,98052,47.6697631,-122.1364617
SEAT,981,STATION,"3702 C STREET, NE",AUBURN,WA,98002,47.3410506,-122.2244148
EVRT,982,STATION,2000 SOUTH WALNUT STREET,BURLINGTON,WA,98233,48.451908,-122.33157
PTAN,983,STATION,51 EASY STREET,PORT ANGELES,WA,98362,48.1024108,-123.3446982
OLYM,985,STATION,3775 PIONEER AVENUE,DUPONT,WA,98327,47.117545,-122.6384178
TDAL,986,STATION,3840 CRATES WAY,THE DALLES,OR,97058,45.628714,-121.202836
BURN,987,SUBSTATION,250 LOTTERY LANE,HINES,OR,97738,43.5560939,-119.0798275
WENA,988,STATION,5823 NELPAR DRIVE,EAST WENATCHEE,WA,98802,47.5178464,-120.2881955
YAKI,989,STATION,2801 GOODMAN ROAD,UNION GAP,WA,98903,46.55413062,-120.5019571
MLAK,990,STATION,5178 RANDOLPH ROAD NE,MOSES LAKE,WA,98837,47.18277149,-119.2998796
OMAK,991,STATION,1219 KOALA DRIVE,OMAK,WA,98841,48.42785898,-119.4978598
SPOK,992,STATION,4005 NORTH MOORE ROAD,SPOKANE,WA,99216,47.69324133,-117.190466
PASC,993,STATION,5515 N. INDUSTRIAL WAY,PASCO,WA,99301,46.2777779,-119.0934861
TACO,994,STATION,3015 78TH AVENUE EAST,TACOMA,WA,98424,47.2288338,-122.3250081
QSPF,3011,STATION,140 LONCZAK DRIVE,CHICOPEE,MA,1022,42.1859907,-72.55298924
QNTH,3013,STATION,1 BEEMAN ROAD,NORTHBOROUGH,MA,1532,42.3118463,-71.60675887
QWOR,3016,STATION,100 PINE HILL DRIVE,BOYLSTON,MA,1505,42.3278981,-71.7284782
QNAT,3017,STATION,30 SUPERIOR DRIVE,NATICK,MA,1760,42.30123972,-71.37932905
QWLG,3018,STATION,45 INDUSTRIAL WAY,WILMINGTON,MA,1887,42.528588,-71.1407668
QNBI,3020,STATION,90 SALEM ROAD,NORTH BILLERICA,MA,1862,42.5760406,-71.2670041
QANO,3021,STATION,375 BALLARDVALE ST.,WILMINGTON,MA,1887,42.6084638,-71.1582429
QQUC,3022,STATION,520 COMMANDER SHEA BLVD,QUINCY,MA,2171,42.2915666,-71.0311393
QBRK,3024,STATION,985 BELMONT STREET,BROCKTON,MA,2301,42.06450365,-71.05724695
QMVD,3025,SUBSTATION,19 NORTH LINE ROAD,EDGARTOWN,MA,2539,41.3926954,-70.60647725
QCAP,3026,STATION,17 COWAN DRIVE,MIDDLEBORO,MA,2346,41.8137439,-70.79896188
QNTK,3027,SUBSTATION,9 NANCY LANE,NANTUCKET,MA,2554,41.26007855,-70.0767454
QPRO,3028,STATION,29 GREEN EARTH WAY,JOHNSTON,RI,2919,41.7969136,-71.5147308
QSEE,3029,STATION,1977 FALL RIVER AVENUE,SEEKONK,MA,2771,41.78028882,-71.29707108
QMAN,3031,STATION,44 INDUSTRIAL DRIVE,LONDONDERRY,NH,3053,42.91147045,-71.43295785
QKEE,3034,STATION,40 COACHMAN ROAD,WEST CHESTERFIELD,NH,3466,42.8901913,-72.4866501
QLIT,3035,STATION,883 INDUSTRIAL PARK DRIVE,LITTLETON,NH,3561,44.2910904,-71.7987086
QLEB,3037,STATION,30 PLAZA HEIGHTS ROAD,WEST LEBANON,NH,3784,43.62501415,-72.31754425
QBID,3040,STATION,1 BAKERS WAY,BIDDEFORD,ME,4005,43.473925,-70.48452597
QPTL,3041,STATION,115 INDUSTRIAL PARK ROAD,SACO,ME,4072,43.5400018,-70.4381177
QAUM,3043,STATION,380 RIVER ROAD,LEWISTON,ME,4240,44.0518161,-70.1879984
QBAN,3044,STATION,27 MACK LANE,BANGOR,ME,4401,44.7769412,-68.8731255
QHLT,3047,STATION,191 LUDLOW ROAD,HOULTON,ME,4730,46.1410845,-67.8588475
QBRL,3054,STATION,635 COMMUNITY DRIVE,SOUTH BURLINGTON,VT,5403,44.4481187,-73.14328837
QNSR,3059,STATION,495 LORDSHIP BOULEVARD,STRATFORD,CT,6615,41.168915,-73.1521816
QHAR,3060,STATION,350 RUBY ROAD,WILLINGTON,CT,6279,41.92095624,-72.25992803
QSWN,3061,STATION,40 KENNEDY ROAD,SOUTH WINDSOR,CT,6074,41.855001,-72.5824979
QWND,3063,STATION,759 RAINBOW ROAD,WINDSOR,CT,6095,41.9123992,-72.6818524
QWSR,3065,STATION,550 LONG BEACH BLVD,STRATFORD,CT,6615,41.16473126,-73.15255861
QNHV,3066,STATION,29 TOELLES ROAD,WALLINGFORD,CT,6492,41.4280144,-72.8428308
QNWK,3067,STATION,173 DOREMUS AVE #269,NEWARK,NJ,7105,40.7275747,-74.1243558
QSTF,3068,STATION,825 LORDSHIP BLVD,STRATFORD,CT,6615,41.16782942,-73.14580936
QELM,3069,STATION,300 WATERSIDE DRIVE,ELMSFORD,NY,10523,41.0662508,-73.8193857
QSEC,3070,STATION,1049 SECAUCUS ROAD,JERSEY CITY,NJ,7307,40.7605218,-74.0518202
QCRT,3071,STATION,200 MILIK STREET,CARTERET,NJ,7008,40.58999921,-74.25135996
QCTX,3072,ANNEX,80 ESSEX AVENUE,AVENEL,NJ,7001,40.5783128,-74.2602985
QWAN,3074,STATION,95 DEMAREST DRIVE,WAYNE,NJ,7470,40.90284035,-74.26074417
QDOV,3075,STATION,1 COMMERCE CENTER DRIVE,DOVER,NJ,7801,40.89774945,-74.55561187
QMOO,3076,STATION,1 CHIPPEWA STREET,SOUTH HACKENSACK,NJ,7606,40.862605,-74.048625
QMEC,3077,SUBSTATION,25-53 TALMADGE ROAD,EDISON,NJ,8817,40.52794058,-74.39003822
QAVE,3079,STATION,135 ESSEX AVE,AVENEL,NJ,7001,40.5756217,-74.2632325
QEBR,3080,STATION,39 EDGEBORO ROAD,EAST BRUNSWICK,NJ,8816,40.467576,-74.397013
QBAR,3081,STATION,ONE COMMERCE DRIVE,BARRINGTON,NJ,8007,39.8642377,-75.0455965
QCAM,3082,STATION,5 COMMERCE DRIVE,BARRINGTON,NJ,8007,39.8627635,-75.0418803
QROB,3085,STATION,584 US ROUTE 130,TRENTON,NJ,8691,40.1885819,-74.6559624
QPRN,3086,STATION,63 STULTS ROAD,DAYTON,NJ,8810,40.3577331,-74.4827856
QLWO,3088,ANNEX,6000 RIVERSIDE DR,KEASBEY,NJ,8832,40.5079404,-74.3267161
QNYC,3100,STATION,300 MASPETH AVE.,BROOKLYN,NY,11211,40.71700695,-73.93144763
QBKN,3101,STATION,100 MORGAN AVENUE,BROOKLYN,NY,11237,40.7084091,-73.9324122
QMHT,3102,STATION,83-15  24TH AVENUE,EAST ELMHURST,NY,11370,40.7662601,-73.8739131
QSUN,3103,STATION,46-06 57TH AVENUE,MASPETH,NY,11378,40.7254074,-73.9251437
QWTP,3104,STATION,109 FAIRVIEW PARK DRIVE,ELMSFORD,NY,10523,41.067865,-73.8211761
QBRX,3106,STATION,635 ZEREGA AVENUE,BRONX,NY,10473,40.82059047,-73.84220829
QYON,3107,STATION,10 HERRMANN PLACE,YONKERS,NY,10710,40.9552919,-73.85848241
QSPV,3108,STATION,9 AL FOXIE WAY,BLAUVELT,NY,10913,41.0813778,-73.9554702
QNWB,3109,STATION,3 ENTERPRISE DRIVE,NEWBURGH,NY,12550,41.51312585,-74.11580733
QCNR,3110,STATION,570 E. 108th STREET ,BROOKLYN,NY,11236,40.6518058,-73.89731253
QLWR,3111,STATION,1 JOHNSON ROAD,LAWRENCE,NY,11559,44.596017,-75.326698
QEBK,3112,STATION,830 FOUNTAIN AVENUE,BROOKLYN,NY,11239,40.6600084,-73.8669734
QWDS,3114,STATION,24-25 BROOKLYN QUEENS EXPRSS W,WOODSIDE,NY,11377,40.764595,-73.901712
QGRC,3115,STATION,160 GRUMMAN ROAD WEST,BETHPAGE,NY,11714,40.7433354,-73.49031335
QNBT,3116,STATION,1 AEROSPACE BOULEVARD,BETHPAGE,NY,11714,40.75754195,-73.49100371
QBTH,3117,STATION,700 HICKSVILLE ROAD,BETHPAGE,NY,11714,40.7445842,-73.4960858
QBOH,3118,STATION,100 ORVILLE DRIVE,BOHEMIA,NY,11716,40.7731485,-73.1027023
QWBT,3119,STATION,999 SOUTH OYSTER BAY ROAD,BETHPAGE,NY,11714,40.7562863,-73.4984178
QLNI,3120,STATION,5901 VETERANS MEMORIAL HWY,HOLBROOK,NY,11741,40.77368315,-73.06272858
QSTY,3121,SUBSTATION,900 ROTTERDAM INDUSTRIAL PARK,SCHENECTADY,NY,12306,42.7828509,-73.98634245
QALB,3122,STATION,253 TROY ROAD,RENSSELAER,NY,12144,42.63621135,-73.70285702
QEWB,3123,STATION,46-81 METROPOLITAN AVE,QUEENS,NY,11385,40.71400475,-73.92138429
QQUE,3125,STATION,29-01 BORDEN AVE,LONG ISLAND CITY,NY,11101,40.7393197,-73.9409928
QMOT,3127,STATION,201 NEELYTOWN ROAD,MONTGOMERY,NY,12549,41.4966297,-74.2241744
QPLA,3129,STATION,82 GATEWAY DRIVE,PLATTSBURGH,NY,12901,44.778699,-73.43199101
QESY,3131,STATION,6650 NEW VENTURE GEAR DRIVE,EAST SYRACUSE,NY,13057,43.09158975,-76.06042177
QSYL,3132,STATION,7020 VAN BUREN ROAD,SYRACUSE,NY,13209,43.11195125,-76.29348337
QUTI,3135,STATION,101 CANDELLA EXPRESS DRIVE,MARCY,NY,13403,43.1356638,-75.273347
QWTT,3136,STATION,21043 COUNTY ROUTE 200,WATERTOWN,NY,13601,43.9938308,-75.9515803
QCNK,3139,STATION,299 BROOME CORPORATE PARKWAY,CONKLIN,NY,13748,42.0544901,-75.8182348
QCHK,3141,SUBSTATION,2799 WALDEN AVE,CHEEKTOWAGA,NY,14225,42.9078082,-78.7312316
QBUF,3142,STATION,3779 LAKE SHORE ROAD,BUFFALO,NY,14219,42.7805181,-78.8463071
QERC,3145,STATION,5980 COLLET ROAD,FARMINGTON,NY,14425,42.9857502,-77.3516447
QROC,3146,STATION,225 THRUWAY PARK,WEST HENRIETTA,NY,14586,43.0425461,-77.67496991
QCOR,3149,STATION,224 NORTH MAIN STREET,HORSEHEADS,NY,14845,42.1774191,-76.8188095
QNPI,3150,STATION,300 TOMLINSON ROAD,ZELIENOPLE,PA,16063,40.7581363,-80.1055174
QPIT,3152,STATION,2702 NEVILLE ROAD,PITTSBURGH,PA,15225,40.5015937,-80.0908449
QCLN,3153,ANNEX,2291 SWEENEY DRIVE,CLINTON,PA,15026,40.49727395,-80.29462165
QGBG,3156,STATION,2000 LABONTE DRIVE,HUNKER,PA,15639,40.2136536,-79.6190233
QDUB,3158,STATION,6 INDUSTRIAL DRIVE,DU BOIS,PA,15801,41.1328881,-78.7328302
QOIL,3163,STATION,1715 DEBENCE DRIVE,FRANKLIN,PA,16323,41.3535536,-79.8673962
QERI,3165,STATION,7500 BIRKMIRE DRIVE,FAIRVIEW,PA,16415,42.0244844,-80.19200124
QALT,3166,STATION,231 THEATER DRIVE,DUNCANSVILLE,PA,16635,40.4404576,-78.4408751
QHRL,3171,STATION,510 INDUSTRIAL DRIVE,LEWISBERRY,PA,17339,40.1645187,-76.83909965
QCAR,3172,STATION,951 CENTERVILLE ROAD,NEWVILLE,PA,17241,40.154788,-77.381177
QEHR,3176,STATION,111 FULLING MILL ROAD,MIDDLETOWN,PA,17057,40.21457,-74.917125
QWMP,3177,STATION,600 ALEXANDER DRIVE,MUNCY,PA,17756,41.2509018,-76.8445277
QRDG,3178,SUBSTATION,2525 NORTH 12TH STREET,READING,PA,19605,40.362074,-75.913467
QPTS,3179,STATION,52 HICKORY DRIVE,AUBURN,PA,17922,40.6075438,-76.0897698
QLEL,3181,STATION,1000 WILLOWBROOK ROAD,NORTHAMPTON,PA,18067,40.682444,-75.4662033
QSCR,3185,STATION,99 FREEPORT ROAD,PITTSTON,PA,18640,41.3204245,-75.7217029
QPHI,3190,STATION,14300 TOWNSEND ROAD,PHILADELPHIA,PA,19154,40.1021213,-74.9856884
QSPH,3191,STATION,1 TINICUM ISLAND ROAD,PHILADELPHIA,PA,19113,39.8660269,-75.283394
QWSC,3192,STATION,442 CREAMERY WAY,EXTON,PA,19341,40.0164575,-75.655186
QNWL,3193,STATION,1360 WELSH ROAD,NORTH WALES,PA,19454,40.2153752,-75.232774
QKOP,3194,STATION,601 RIVER ROAD,BRIDGEPORT,PA,19405,40.104582,-75.329123
QOKS,3195,SUBSTATION,122 MILL ROAD,PHOENIXVILLE,PA,19460,40.1239698,-75.4552287
QNWC,3197,STATION,49 DAVIDSON LANE,NEW CASTLE,DE,19720,39.70339849,-75.53856452
QSAL,3199,STATION,161 VENTURE DRIVE,SEAFORD,DE,19973,38.6581715,-75.61225979
QWAS,3200,STATION,11900 TROLLEY LANE,BELTSVILLE,MD,20705,39.0529769,-76.9086535
QUMD,3206,STATION,16001 QUEENS COURT,UPPER MARLBORO,MD,20774,38.8705474,-76.7283079
QBLT,3207,STATION,11740 BALTIMORE AVENUE,BELTSVILLE,MD,20705,39.04716022,-76.90080497
QGAT,3208,STATION,800 N. FREDERICK AVE.,GAITHERSBURG,MD,20879,39.155204,-77.2154797
QEBA,3209,STATION,6021 BETHLEHEM BLVD,SPARROWS POINT,MD,21219,39.23417155,-76.4872578
QSBA,3210,STATION,4835 HOLLINS FERRY ROAD,HALETHORPE,MD,21227,39.22444825,-76.68986285
QHAL,3211,ANNEX,4801 HOLLINS FERRY  ROAD,HALETHORPE,MD,21227,39.2259766,-76.68572772
QBAL,3212,STATION,10075 PHILADELPHIA ROAD,WHITE MARSH,MD,21162,39.36605269,-76.4497096
QCMB,3215,STATION,31 LANE AVENUE,CUMBERLAND,MD,21502,39.6655726,-78.8029551
QSDV,3216,SUBSTATION,60 STARLIFTER AVE,DOVER,DE,19901,39.14286892,-75.46979877
QHAG,3217,STATION,11825 NEWGATE BOULEVARD,HAGERSTOWN,MD,21740,39.6408334,-77.7918477
QLOR,3220,STATION,8988 BELVOIR VIEW PLACE,LORTON,VA,22079,38.7257061,-77.1882356
QALX,3221,STATION,6626 FLEET DRIVE,ALEXANDRIA,VA,22310,38.7730418,-77.1572341
QCHN,3222,STATION,14900 STONECROFT CENTER COURT,CHANTILLY,VA,20151,38.9016135,-77.463654
QMAS,3223,STATION,7303 CUSHING ROAD,MANASSAS,VA,20109,38.7967813,-77.5614046
QFRD,3224,STATION,300 CENTREPORT PARKWAY,FREDERICKSBURG,VA,22406,38.3907711,-77.4710935
QWIN,3226,STATION,130 FROGALE COURT,WINCHESTER,VA,22602,39.1281511,-78.2011484
QCLT,3229,STATION,7 INDUSTRY WAY,STAUNTON,VA,24401,38.182629,-79.022393
QCHR,3230,STATION,13301 GROVER COURT,CHESTER,VA,23836,37.3462542,-77.400309
QRIC,3232,STATION,10105 WHITESEL RD,ASHLAND,VA,23005,37.7036068,-77.4466054
QASD,3233,STATION,10999 AIR PARK ROAD,ASHLAND,VA,23005,37.7004094,-77.4359532
QNOR,3235,STATION,1401 KELLAND DRIVE,CHESAPEAKE,VA,23320,36.77301825,-76.27391327
QNEW,3236,STATION,61 FLOYD THOMPSON BLVD,HAMPTON,VA,23666,37.08562705,-76.38978125
QVAB,3237,STATION,2555 ELLSMERE AVE,NORFOLK,VA,23513,36.8779147,-76.21952952
QEMP,3238,STATION,180 DANIEL A BELMONTE DRIVE,EMPORIA,VA,23847,36.7369448,-77.5097622
QROA,3240,STATION,1935 BLUE HILLS DRIVE NE,ROANOKE,VA,24012,37.31134304,-79.89900975
QSLE,3241,STATION,2045 COOK DRIVE,SALEM,VA,24153,37.26835763,-80.02266537
QPUL,3243,STATION,3996 PEPPERELL WAY,DUBLIN,VA,24084,37.077839,-80.7244735
QEPT,3252,SUBSTATION,2000 CENTRE COURT,EAST POINT,GA,30344,33.6832181,-84.448772
QCHW,3253,STATION,7 JW DRIVE,CHARLESTON,WV,25313,38.407561,-81.8073201
QMRT,3254,STATION,553 CAPERTON BLVD.,MARTINSBURG,WV,25403,39.51410204,-77.96079944
QBEC,3258,STATION,134 AMELIA ROAD,BEAVER,WV,25813,37.7920596,-81.1290233
QETL,3262,ANNEX,4644 SOUTHPARK BLVD,ELLENWOOD,GA,30294,33.6283848,-84.2889375
QCLB,3263,STATION,59 FRESA PARKWAY,BRIDGEPORT,WV,26330,39.3492884,-80.3047155
QMOR,3265,STATION,163 PITMAN ROAD,MORGANTOWN,WV,26501,39.6281642,-80.0032447
QPSL,3266,ANNEX,13701 SW ANTHONY F SANSONE SR,PORT ST. LUCIE,FL,34987,27.2977589,-80.5216184
QFMX,3267,ANNEX,6020 AIRPORT DRIVE,CHARLOTTE,NC,28208,35.2136836,-80.9279272
QLNC,3268,STATION,1000 E POWELL DR,LINCOLNTON,NC,28092,35.537296,-81.2157365
QFYX,3269,ANNEX,1030 FORT WORTH AVE,FAYETTEVILLE,NC,28312,35.062393,-78.837557
QRKR,3270,SUBSTATION,2400 NORTH MEMORIAL DRIVE,GREENVILLE,NC,27834,35.652765,-77.364975
QGRN,3271,STATION,1544 OLD GREENSBORO ROAD,KERNERSVILLE,NC,27284,36.1118657,-80.0525846
QELN,3272,STATION,6538 JUDGE ADAMS ROAD,WHITSETT,NC,27377,36.0472007,-79.5909753
QRAX,3273,ANNEX,8001 KNIGHTDALE BLVD,KNIGHTDALE,NC,27545,35.80721211,-78.46095665
QRAL,3276,STATION,2600 PAGE ROAD,DURHAM,NC,27703,35.91644116,-78.81474799
QDUR,3277,STATION,4357 S. ALSTON AVE,DURHAM,NC,27713,35.90852665,-78.88229815
QECA,3278,STATION,5350 NORTHLAND DRIVE,GREENVILLE,NC,27834,35.65065455,-77.35173121
QELI,3279,STATION,204 SOUTH GRANBY STREET,HERTFORD,NC,27944,36.1707142,-76.4506147
QCON,3280,STATION,4350 FORTUNE AVE NW,CONCORD,NC,28027,35.4278675,-80.6569729
QCHL,3281,STATION,6604 CSX WAY,CHARLOTTE,NC,28214,35.27297065,-80.922953
QFAY,3283,STATION,104 MIDWAY DRIVE,RAEFORD,NC,28376,35.0330003,-79.1215122
QWIL,3284,STATION,3241 PENNINGTON DRIVE,WILMINGTON,NC,28405,34.2973384,-77.8993209
QSFY,3285,STATION,880 TECHNOLOGY DRIVE,FAYETTEVILLE,NC,28306,34.9458162,-78.8893915
QHIC,3286,STATION,1936 Amity Street,NEWTON,NC,28658,35.6854612,-81.2592827
QBRC,3287,STATION,1995 HIGHWAY 19 SOUTH,BRYSON CITY,NC,28713,35.4071201,-83.4666203
QASV,3288,STATION,99 BROADPOINTE DR.  ,MILLS RIVER,NC,28759,35.41956915,-82.55001273
QCOB,3292,STATION,151 SHOP GROVE DRIVE,COLUMBIA,SC,29209,33.9404055,-80.9599933
QSPA,3293,STATION,450 FALLING CREEK RD,SPARTANBURG,SC,29301,34.9580486,-82.0490851
QCHS,3294,STATION,6850 WEBER RD,LADSON,SC,29456,32.9593196,-80.0930159
QFLO,3295,STATION,2498 FLORENCE HARLEE BOULEVARD,FLORENCE,SC,29506,34.26776672,-79.68662812
QGRE,3296,STATION,135 FEDEX WAY,GREENVILLE,SC,29605,34.79213831,-82.39374687
QFML,3297,STATION,3058 LAKEMONT BOULEVARD,FORT MILL,SC,29708,35.0895825,-80.9399251
QNJK,3298,SUBSTATION,9779 PRITCHARD ROAD,JACKSONVILLE,FL,32219,30.3792683,-81.8188393
QMAR,3300,STATION,1675 AIRPORT ROAD NW,KENNESAW,GA,30144,34.0087685,-84.6019546
QNRC,3301,STATION,6265 ATLANTIC BOULEVARD,NORCROSS,GA,30071,33.94028045,-84.23493065
QATL,3302,STATION,4665 SOUTH PARK BOULEVARD,ELLENWOOD,GA,30294,33.627286,-84.2930181
QSTA,3304,STATION,3400 ZELL MILLER BOULEVARD,STATESBORO,GA,30458,32.3861162,-81.8394274
QATH,3306,STATION,1655 OLYMPIC DRIVE,ATHENS,GA,30601,33.9866063,-83.33191071
QSAT,3307,STATION,3120 ANVIL BLOCK RD ELLENWOOD,ELLENWOOD,GA,30294,33.6362847,-84.2857343
QAUG,3309,STATION,2902 GUN CLUB ROAD,AUGUSTA,GA,30907,33.5236556,-82.0309279
QBRS,3310,STATION,650 BRASELTON PARYKWAY,BRASELTON,GA,30517,34.1193722,-83.7739042
QAST,3311,STATION,7585 FACTORY SHOALS ROAD SW,AUSTELL,GA,30168,33.7679273,-84.5882092
QMAC,3312,STATION,1035 FRANK AMERSON PARKWAY,MACON,GA,31216,32.7377554,-83.72542583
QNSV,3313,STATION,595 NORTHPORT PARKWAY,PORT WENTWORTH,GA,31407,32.1993607,-81.1762884
QSVN,3314,STATION,126 GIGNILLIAT CIRCLE,SAVANNAH,GA,31408,32.1197786,-81.2210736
QWAY,3315,STATION,3349 SIMMONS DRIVE,WAYCROSS,GA,31503,31.2582297,-82.4282888
QALN,3317,STATION,1508 DOUGHERTY AVENUE,ALBANY,GA,31705,31.5541633,-84.1189432
QCOG,3319,STATION,6101 CHATTSWORTH COURT,MIDLAND,GA,31820,32.5328416,-84.8484037
QJKS,3321,STATION,13509 WATERWORKS STREET,JACKSONVILLE,FL,32221,30.2762511,-81.8910597
QTAL,3323,STATION,2058 SUMMIT LAKE DRIVE,TALLAHASSEE,FL,32317,30.48315442,-84.14848168
QPMC,3324,STATION,7801 COMMERCE BLVD,PANAMA CITY,FL,32404,30.2731848,-85.5184642
QPEN,3325,STATION,300 MOSSY HEAD PLAZA,DEFUNIAK SPRINGS,FL,32435,30.7351185,-86.3439573
QOCL,3326,STATION,3100 NW 35TH AVE  RD ,OCALA,FL,34475,29.2135377,-82.1774311
QSKY,3327,STATION,7830 SOUTHLAND BOULEVARD,ORLANDO,FL,32809,28.45096143,-81.40718821
QOAL,3328,STATION,3000 DIRECTORS ROW,ORLANDO,FL,32809,28.46189455,-81.42491181
QCOC,3329,STATION,3155 GRISSOM PKWY,COCOA,FL,32926,28.41527481,-80.78520212
QHLG,3331,STATION,11801 N.W. 101 ROAD,MIAMI,FL,33178,25.8764862,-80.366387
QMIA,3332,STATION,10400 NW 122ND STREET,MIAMI,FL,33178,25.8825529,-80.3654941
QFTL,3333,STATION,2700 NW 25TH STREET,POMPANO BEACH,FL,33069,26.1584286,-80.2222241
QRVB,3334,STATION,1177 WEST BLUE HERON BLVD,WEST PALM BEACH,FL,33404,26.7797542,-80.0729525
QOKR,3335,STATION,7153 S. JOHN YOUNG PARKWAY,ORLANDO,FL,32809,28.4625174,-81.4193991
QCTP,3336,STATION,5025 W. KNOLLWOOD ST.,TAMPA,FL,33634,28.007965,-82.461594
QSTP,3337,STATION,1950  102ND AVE NORTH,SAINT PETERSBURG,FL,33716,27.8648062,-82.6511396
QPMB,3338,STATION,7358 7TH PLACE NORTH,WEST PALM BEACH,FL,33411,26.6872363,-80.1639645
QNFT,3339,STATION,1880 ORTIZ AVENUE,FORT MYERS,FL,33905,26.6647548,-81.8122905
QFTM,3341,STATION,14001 JETPORT LOOP,FORT MYERS,FL,33913,26.53908285,-81.7878358
QBDT,3342,STATION,11915 31ST TERRACE EAST,PALMETTO,FL,34221,27.6220212,-82.534021
QKEN,3343,STATION,27200 SW 127TH AVE,HOMESTEAD,FL,33032,25.5123944,-80.3987434
QTAM,3346,STATION,8411 FLORIDA MINING BOULEVARD,TAMPA,FL,33634,28.0268881,-82.531934
QSND,3347,STATION,451 MONROE ROAD,SANFORD,FL,32771,28.8004747,-81.3227111
QDAV,3348,STATION,5000 NORTH RIDGE TRAIL,DAVENPORT,FL,33897,28.2355199,-81.6589093
QWPL,3349,STATION,5731 PREMIER PARK DRIVE,WEST PALM BEACH,FL,33407,26.76232726,-80.12638023
QBIR,3350,STATION,4901 ALTON COURT,BIRMINGHAM,AL,35210,33.5527304,-86.6589045
QEBI,3352,STATION,3200 RODEO COURT,BESSEMER,AL,35022,33.3953083,-86.9231099
QTUS,3354,STATION,3606 FOSTERS INDUSTRIAL DRIVE,TUSCALOOSA,AL,35401,33.1813935,-87.6009653
QHUN,3357,STATION,510 PRODUCTION AVENUE,MADISON,AL,35758,34.67191185,-86.78356393
QSHU,3358,STATION,9324 MADISON BOULEVARD,MADISON,AL,35758,34.67113521,-86.76590231
QAUX,3359,ANNEX,2902 GUN CLUB RD,AUGUSTA,GA,30907,33.5236556,-82.0309279
QTAF,3360,ANNEX,501 GILLS DR,ORLANDO,FL,32824,28.4419115,-81.3842762
QMTG,3361,STATION,7910 BILL JOSEPH PARKWAY,MONTGOMERY,AL,36105,32.264595,-86.372831
QANN,3362,STATION,35 FISH HATCHERY LANE,EASTABOGA,AL,36260,33.6048817,-86.0056194
QDOT,3363,STATION,4674 WESTGATE PARKWAY,DOTHAN,AL,36303,31.27135975,-85.38748024
QEVE,3364,STATION,124 FAIRVIEW COMMONS DRIVE,EVERGREEN,AL,36401,31.4341907,-86.9545924
QKNX,3365,ANNEX,3700 MIDDLEBROOK PIKE,KNOXVILLE,TN,37921,35.962068,-83.969664
QMOB,3366,STATION,6752 TRIPPEL ROAD,THEODORE,AL,36582,30.5577719,-88.2111181
QSHV,3367,ANNEX,4325 EXECUTIVE DRIVE,SOUTHAVEN,MS,38672,34.9241294,-90.0002914
QEBX,3368,SUBSTATION,1401 GADSDEN HIGHWAY,BIRMINGHAM,AL,35235,33.59566573,-86.64637136
QENX,3369,ANNEX,1050 RICHARD PETTY WAY,LEBANON,TN,37090,36.041794,-86.3942702
QEMU,3370,STATION,3161 ELAM FARMS PARKWAY,MURFREESBORO,TN,37127,35.79052497,-86.36642462
QNAL,3372,STATION,3301 KNIGHT ROAD,NASHVILLE,TN,37207,36.232112,-86.803803
QCHT,3373,STATION,3021 ALTON PARK BLVD,CHATTANOOGA,TN,37410,35.02066302,-85.3137396
QECH,3374,STATION,5076 SUMMIT SPRING WAY,OOLTEWAH,TN,37363,35.0741543,-85.1034321
QKOD,3375,STATION,3774 SNYDER ROAD,KODAK,TN,37764,35.9953749,-83.6102302
QJOH,3376,STATION,2200 TRI-CITIES CROSSING,KINGSPORT,TN,37663,36.457533,-82.535703
QKNO,3379,STATION,2560 BERTELKAMP LANE,KNOXVILLE,TN,37931,35.9590989,-84.1444252
QMEM,3381,STATION,555 COMPRESS DRIVE,MEMPHIS,TN,38106,35.08286886,-90.04458533
QENA,3382,STATION,100 FEDEX WAY,MOUNT JULIET,TN,37122,36.200055,-86.5186054
QJAC,3383,STATION,7 AMERICAN WOODMARK DRIVE,HUMBOLDT,TN,38343,35.82485,-88.9370466
QLAW,3384,STATION,20 COMMERCE WAY,ETHRIDGE,TN,38456,35.2970055,-87.3091459
QCOO,3385,STATION,1780 TENNTEX DRIVE,COOKEVILLE,TN,38506,36.1287291,-85.4735715
QOLL,3386,STATION,8505 NAIL ROAD,OLIVE BRANCH,MS,38654,34.94153078,-89.8379785
QGRM,3387,STATION,4483 HWY 82 WEST,LELAND,MS,38756,33.3993444,-90.9259864
QTUP,3388,STATION,3341 N COLEY ROAD,BELDEN,MS,38826,34.3046842,-88.771799
QMLX,3390,ANNEX,555 COMPRESS DRIVE,MEMPHIS,TN,38106,35.08286886,-90.04458533
QJAM,3392,STATION,1549 OLD WHITFIELD RD,PEARL,MS,39208,32.26230319,-90.08630535
QMER,3393,STATION,71 HIGHWAY 19 NORTH,MERIDIAN,MS,39307,32.3656057,-88.7299136
QHAT,3394,STATION,1744 EVELYN GANDY PARKWAY,HATTIESBURG,MS,39401,31.3694392,-89.3134879
QGFP,3395,STATION,10268 CORPORATE DRIVE,GULFPORT,MS,39503,30.43632059,-89.04217187
QMCC,3396,STATION,1335 PARKLANE ROAD,MCCOMB,MS,39648,31.22588274,-90.47604247
QSTR,3397,STATION,4925 SOUTH FRONTAGE ROAD,COLUMBUS,MS,39701,33.4787768,-88.5729137
QSOC,3398,STATION,635 OCOEE BUSINESS PARKWAY,OCOEE,FL,34761,28.5671747,-81.5512177
QNME,3399,SUBSTATION,3456 MEYERS ROAD,MEMPHIS,TN,38108,35.17780255,-89.94495054
QELO,3400,STATION,12900 PLANTSIDE DR,LOUISVILLE,KY,40299,38.2088165,-85.5197163
QSHD,3401,SUBSTATION,270 OMEGA PARKWAY,SHEPHERDSVILLE,KY,40165,37.978102,-85.683543
QLXX,3404,ANNEX,2061 BUCK LANE,LEXINGTON,KY,40511,38.0854506,-84.5387258
QLEX,3405,STATION,2024 BUCK LANE,LEXINGTON,KY,40511,38.08273155,-84.53672537
QNKL,3406,STATION,11000 TOEBBEN DRIVE,INDEPENDENCE,KY,41051,38.9414555,-84.6164737
QLON,3407,STATION,600 INDUSTRIAL BLVD,LONDON,KY,40741,37.1425713,-84.1854643
QLOX,3408,ANNEX,60 SPRINGLAKE BLVD,LONDON,KY,40744,37.0825516,-84.065217
QASH,3411,STATION,301 COMMERCE DRIVE,SOUTH POINT,OH,45680,38.4297568,-82.5880048
QCHV,3417,STATION,918 COAL FIELDS INDSTRL DR,CHAVIES,KY,41727,37.3478702,-83.3562912
QBWG,3421,STATION,155 FLEX PARK DRIVE,BOWLING GREEN,KY,42101,36.9261303,-86.4994786
QPDU,3424,STATION,2500 EICH ROAD,PADUCAH,KY,42003,37.0277287,-88.5811405
QWCO,3428,STATION,8285 INDUSTRIAL PARKWAY,PLAIN CITY,OH,43064,40.1316508,-83.2091036
QECO,3429,STATION,4600 POTH ROAD,COLUMBUS,OH,43213,39.9834191,-82.8784056
QCOL,3431,STATION,6120 SOUTH MEADOWS DRIVE,GROVE CITY,OH,43123,39.8373934,-83.08450741
QGRP,3433,STATION,6840 PONTIUS ROAD,GROVEPORT,OH,43125,39.83061925,-82.89499003
QTOL,3435,STATION,100 J STREET,PERRYSBURG,OH,43551,41.562642,-83.623669
QZAN,3437,STATION,8705 COMMERCE DRIVE,CAMBRIDGE,OH,43725,39.9808489,-81.5775609
QECL,3440,STATION,2050 E. AURORA ROAD,TWINSBURG,OH,44087,41.30848705,-81.46534006
QCLE,3441,STATION,3201 COLUMBIA ROAD,RICHFIELD,OH,44286,41.27687492,-81.62671282
QRIF,3442,SUBSTATION,3245 HENRY ROAD,RICHFIELD,OH,44286,41.27686499,-81.62237062
QETA,3444,ANNEX,11176 NATIONAL ROAD SW,ETNA,OH,43062,39.95718638,-82.69975545
QYOU,3445,STATION,12305 BAILEY COURT EAST,NORTH JACKSON,OH,44451,41.1093462,-80.8832638
QNCA,3447,STATION,8495 PORT JACKSON AVE. NW,CANTON,OH,44720,40.9043996,-81.4479836
QTOX,3448,STATION,7401 FREMONT PIKE,PERRYSBURG TOWNSHIP,OH,43551,41.5189119,-83.537002
QMNS,3449,STATION,515 URWIN PARKWAY,MANSFIELD,OH,44906,40.7655318,-82.6144072
QNCI,3450,STATION,325 HOMAN ROAD,LEBANON,OH,45036,39.4002369,-84.2176697
QCIN,3452,STATION,9667 INTER-OCEAN DRIVE,CINCINNATI,OH,45246,39.313465,-84.4768173
QSDA,3453,STATION,8650 BYERS ROAD,MIAMISBURG,OH,45342,39.6232672,-84.2359234
QDAY,3454,STATION,795 DEER RUN ROAD,VANDALIA,OH,45377,39.90864605,-84.18398035
QCHI,3456,STATION,1415 INDUSTRIAL DRIVE,CHILLICOTHE,OH,45601,39.36080206,-83.00122359
QNIN,3461,STATION,10301 BENNETT PARKWAY,ZIONSVILLE,IN,46077,39.93611765,-86.24738267
QIND,3462,STATION,4111 PRODUCERS DRIVE,INDIANAPOLIS,IN,46218,39.80299462,-86.09421712
QHAM,3463,STATION,1515 GOSTLIN STREET,HAMMOND,IN,46327,41.63229544,-87.49256576
QMUN,3464,STATION,"101 45TH STREET, UNIT 2",MUNSTER,IN,46321,41.5439834,-87.5234527
QPLF,3465,STATION,8951 MIRABEL ROAD,INDIANAPOLIS,IN,46241,39.6811615,-86.32235023
QSOB,3466,STATION,5115 DYLAN DRIVE,SOUTH BEND,IN,46628,41.7442256,-86.3313954
QFWY,3468,STATION,10905 GATEWAY BLVD,NEW HAVEN,IN,46774,41.0677933,-84.9984848
QKOK,3469,STATION,2360 E NORTH STREET,KOKOMO,IN,46901,40.498203,-86.126863
QLOU,3471,STATION,5153 MARITIME ROAD,JEFFERSONVILLE,IN,47130,38.32718217,-85.67760633
QGRW,3472,STATION,2157 STACIES WAY,GREENWOOD,IN,46143,39.5962061,-86.0576342
QMUX,3473,ANNEX,101 45TH AVENUE,MUNSTER,IN,46321,41.5443579,-87.5237846
QEVA,3477,STATION,15200 HIGHWAY 41 N,EVANSVILLE,IN,47725,38.1169306,-87.5538787
QTER,3478,STATION,2501 S. SYCAMORE TERRACE ST.,TERRE HAUTE,IN,47803,39.43798,-87.341958
QLAF,3479,STATION,3815 DAVID HOWARTH DRIVE,LAFAYETTE,IN,47909,40.3631341,-86.8335645
QSTH,3480,STATION,6100 SIMS DRIVE,STERLING HEIGHTS,MI,48313,42.58879093,-83.04793408
QPON,3481,STATION,1601 BROWN ROAD,LAKE ORION,MI,48359,42.7096295,-83.2676064
QDET,3482,STATION,38401 AMRHEIN ROAD,LIVONIA,MI,48150,42.37431977,-83.42243176
QOKP,3483,STATION,21200 GREENFIELD ROAD,OAK PARK,MI,48237,42.44872131,-83.20047371
QANR,3484,STATION,6700 SOUTH STATE ROAD,SALINE,MI,48176,42.1914081,-83.7390053
QSAG,3485,STATION,3887 E WASHINGTON RD,SAGINAW,MI,48601,43.45061022,-83.87971488
QBEL,3487,ANNEX,41775 ECORSE ROAD,BELLEVILLE,MI,48111,42.2485172,-83.4803312
QLNS,3489,STATION,2290 S CANAL ROAD,LANSING,MI,48917,42.70952935,-84.66487277
QKAL,3491,STATION,6701 PORTAGE ROAD,PORTAGE,MI,49002,42.21944459,-85.55993852
QVBN,3494,STATION,42050 ECORSE ROAD,VAN BUREN CHARTER TWP,MI,48111,42.24920135,-83.454152
QGRD,3495,STATION,3466 SHIPPERS DRIVE NW,GRAND RAPIDS,MI,49544,43.0281609,-85.7208346
QCAD,3496,STATION,3699 CARIBOU TRAIL,CADILLAC,MI,49601,44.2722287,-85.4788065
QGLD,3497,STATION,1748 WOLVERINE PARKWAY,GAYLORD,MI,49735,45.00699955,-84.71855543
QESC,3498,STATION,2502 NORTH 30TH STREET,ESCANABA,MI,49829,45.77857715,-87.08784822
QDES,3503,STATION,2900 SW BROOKSIDE DRIVE,GRIMES,IA,50111,41.682563,-93.8048125
QMSN,3504,STATION,1755 15TH STREET SW,MASON CITY,IA,50401,43.13739451,-93.22759498
QFTD,3505,STATION,3425 MAPLE DRIVE,FORT DODGE,IA,50501,42.4990043,-94.1405012
QWAT,3507,STATION,2320 WEST AIRLINE HIGHWAY,WATERLOO,IA,50703,42.54205114,-92.38377635
QSIO,3511,STATION,5411 AL HAYNES DRIVE,SIOUX CITY,IA,51111,42.4096774,-96.3737047
QSPE,3513,STATION,1454 255TH AVE N,SPIRIT LAKE,IA,51360,43.4361825,-95.08118
QDBQ,3521,STATION,1590 INNOVATION DRIVE,DUBUQUE,IA,52002,42.49530344,-90.76955329
QSCE,3524,STATION,985 CAPITAL DRIVE SW,CEDAR RAPIDS,IA,52404,41.8869272,-91.6817066
QOTT,3525,STATION,14491 TERMINAL AVENUE,OTTUMWA,IA,52501,41.10599915,-92.4369996
QNML,3530,STATION,N96 W14849 COUNTY LINE ROAD,MENOMONEE FALLS,WI,53051,43.1900942,-88.0958767
QMIL,3532,STATION,5300 INTERNATIONAL DRIVE,CUDAHY,WI,53110,42.951721,-87.877403
QMAD,3537,STATION,7322 MANUFACTURERS DRIVE,MADISON,WI,53704,43.1617781,-89.3165356
QOSX,3542,ANNEX,3600 MOSER STREET,OSHKOSH,WI,54901,44.06597112,-88.533024
QGRB,3543,STATION,3383 SPIRIT WAY,GREEN BAY,WI,54304,44.4575918,-88.0920606
QWAU,3544,STATION,1000 NORTH PARK VIEW CIRCLE,MOSINEE,WI,54455,44.790802,-89.6629899
QEGL,3545,STATION,620 COMMERCE LOOP,EAGLE RIVER,WI,54521,45.9117126,-89.2407909
QLAC,3546,STATION,3251 BERLIN DRIVE,LA CROSSE,WI,54601,43.8814348,-91.1680518
QEAU,3547,STATION,2435 PROSPECT DRIVE,EAU CLAIRE,WI,54703,44.8454845,-91.5446146
QOSH,3549,STATION,1755 WEST FERNAU AVENUE,OSHKOSH,WI,54901,44.05729414,-88.56450085
QSPL,3552,STATION,7 LONG LAKE ROAD,SAINT PAUL,MN,55115,45.0348247,-92.9764196
QMPG,3553,STATION,19705 ROGERS DRIVE,ROGERS,MN,55374,45.18034585,-93.52674036
QMIN,3554,STATION,5800 12TH AVENUE EAST,SHAKOPEE,MN,55379,44.7849799,-93.4752412
QMAH,3556,SUBSTATION,3050 ECHO LAKE AVE,MAHTOMEDI,MN,55115,45.036602,-92.973907
QNBR,3557,SUBSTATION,50 14TH STREET NW,SAINT PAUL,MN,55112,45.0727743,-93.1897451
QDUL,3558,STATION,2929 HALVOR LANE,SUPERIOR,WI,54880,46.7250684,-92.1257783
QRCS,3559,STATION,2427 HENRY ROAD NW,STEWARTVILLE,MN,55976,43.8768577,-92.4978441
QMNK,3561,STATION,1730 ENERGY DRIVE,MANKATO,MN,56001,44.1821558,-93.9317294
QWLM,3562,STATION,"1611 TROTT AVENUE, SW",WILLMAR,MN,56201,45.1169284,-95.0669926
QSCL,3563,STATION,730 60TH STREET SOUTH,SAINT CLOUD,MN,56301,45.4695736,-94.1262961
QBRN,3564,STATION,1701 THIESSE DRIVE,BRAINERD,MN,56401,46.3247096,-94.1869861
QBEM,3566,STATION,2401 CRAM AVE SE,BEMIDJI,MN,56601,47.4381935,-94.852329
QSFX,3570,SUBSTATION,5051 W FOUNDATION COURT,SIOUX FALLS,SD,57107,43.622399,-96.7789499
QSFL,3571,STATION,4401 EAST PRODUCER LANE,SIOUX FALLS,SD,57104,43.597532,-96.672841
QWTR,3572,STATION,711 43RD ST SE,WATERTOWN,SD,57201,44.915992,-97.045705
QPIR,3575,STATION,3815 AIRPORT ROAD,PIERRE,SD,57501,44.38205471,-100.303182
QRPC,3577,STATION,3514 GALT COURT,RAPID CITY,SD,57701,44.1080886,-103.1575391
QFAR,3581,STATION,1425 47TH STREET NORTH,FARGO,ND,58102,46.89646344,-96.86879357
QGRF,3582,STATION,2001 S. 48th STREET,GRAND FORKS,ND,58201,47.911146,-97.098983
QMSX,3583,ANNEX,8190 EL WAY,MISSOULA,MT,59801,46.93569818,-114.1106653
QBIS,3585,STATION,4001 APPLE CREEK ROAD,BISMARCK,ND,58504,46.794565,-100.730989
QDKN,3586,STATION,11125 30G ST SW,DICKINSON,ND,58601,46.9768507,-102.7953872
QMIO,3587,STATION,3900 6TH STREET NE,MINOT,ND,58703,48.249061,-101.284597
QWLS,3588,STATION,513 ENERGY STREET,WILLISTON,ND,58801,48.2325678,-103.6148237
QBIL,3591,STATION,3605 HESPER ROAD,BILLINGS,MT,59102,45.74072396,-108.6008367
QMLE,3592,STATION,3620 VALLEY DRIVE EAST,MILES CITY,MT,59301,46.4175188,-105.829013
QHLN,3593,STATION,876 BLAINE STREET,HELENA,MT,59601,46.594926,-111.994303
QGFA,3594,STATION,6401 18TH AVENUE NORTH,GREAT FALLS,MT,59405,47.5248112,-111.2370373
QGLS,3595,STATION,101 11TH STREET SOUTH,GLASGOW,MT,59230,48.197098,-106.64517
QBZM,3596,STATION,225 LAURA LOUISE LANE,BOZEMAN,MT,59718,45.7027599,-111.1884202
QBTT,3597,STATION,78 BASIN CREEK RD,BUTTE,MT,59701,45.92492496,-112.5079739
QMSL,3598,STATION,5001 CURLEW COURT,MISSOULA,MT,59808,46.920818,-114.076808
QKLI,3599,STATION,165 SCHOOLHOUSE LOOP,KALISPELL,MT,59901,48.1405162,-114.273078
QLOO,3600,STATION,1901 WEST 29TH STREET,CHICAGO,IL,60608,41.83895845,-87.67314022
QECR,3601,STATION,175 DELLA COURT,CAROL STREAM,IL,60188,41.89276285,-88.12255151
QNWH,3602,STATION,1234 PETERSON DRIVE,WHEELING,IL,60090,42.11595545,-87.9158672
QNCH,3603,STATION,1260 ROWENA ROAD,GRAYSLAKE,IL,60030,42.3236815,-88.0334046
QWHG,3604,STATION,1430 SOUTH WOLF ROAD,WHEELING,IL,60090,42.10723255,-87.910092
QBFP,3605,STATION,5151 WEST 73RD STREET,CHICAGO,IL,60638,41.7617225,-87.63458
QMCK,3606,STATION,9500 SERGO DRIVE,LA GRANGE,IL,60525,41.7960314,-87.85257335
QNIL,3607,STATION,5959 WEST HOWARD STREET,NILES,IL,60714,42.01734705,-87.77342691
QSCH,3608,STATION,920 W. TAYLOR RD,ROMEOVILLE,IL,60446,41.628273,-88.1078856
QCRL,3609,STATION,205 DELLA COURT,CAROL STREAM,IL,60188,41.89278103,-88.1228809
QMOK,3610,STATION,8965 WEST 187TH ST,MOKENA,IL,60448,41.5504781,-87.8436035
QRKF,3611,STATION,5460 BAXTER ROAD,ROCKFORD,IL,61109,42.1678491,-89.0855813
QRKI,3612,STATION,7800 TURKEY HOLLOW RD,ROCK ISLAND,IL,61201,41.443986,-90.643705
QEWH,3613,STATION,928-960 S WOLF ROAD,WHEELING,IL,60090,42.1220152,-87.910096
QPEO,3616,STATION,500 E. HIGHLAND,MORTON,IL,61550,40.6319728,-89.4542745
QLCX,3617,ANNEX,4105 FIELDSTONE ROAD,CHAMPAIGN,IL,61822,40.11383082,-88.31110994
QCHM,3618,STATION,102 MERCURY DRIVE,CHAMPAIGN,IL,61822,40.149419,-88.235916
QQUI,3623,STATION,4300 LONE TREE DRIVE,QUINCY,IL,62305,39.948963,-91.3477534
QEFH,3624,STATION,1700 HEARTLAND BOULEVARD,EFFINGHAM,IL,62401,39.1069616,-88.5661198
QKOM,3626,SUBSTATION,3050 S KOKE MILL RD,SPRINGFIELD,IL,62711,39.75772852,-89.71522122
QSPI,3627,STATION,2951 GRANGER DRIVE,SPRINGFIELD,IL,62707,39.84252265,-89.59786196
QMRN,3628,STATION,10711 MARK TWAIN ROAD,WEST FRANKFORT,IL,62896,37.90289,-88.953502
QSTL,3630,STATION,1525 WOODSON ROAD,SAINT LOUIS,MO,63114,38.6811597,-90.35717363
QWST,3631,STATION,8462 DELPORT DRIVE,SAINT LOUIS,MO,63114,38.69518986,-90.34173271
QSST,3632,STATION,1602 VINCENT DRIVE,SAUGET,IL,62206,38.5871438,-90.157545
QNST,3633,STATION,9000 PREMIER PARKWAY SOUTH,SAINT PETERS,MO,63376,38.8069025,-90.5966117
QSIK,3638,STATION,2751 NORTH MAIN,SIKESTON,MO,63801,36.8877745,-89.5828519
QNKC,3640,STATION,4029 N PLEASANT AVE,BIRMINGHAM,MO,64161,39.1738453,-94.4205296
QLNL,3642,STATION,8000 COLE PARKWAY,LENEXA,KS,66227,38.9839425,-94.8603285
QKCL,3643,STATION,12501 NE 40TH ST,KANSAS CITY,MO,64161,39.165635,-94.434612
QSTJ,3645,STATION,5501 PROVIDENCE HILL DRIVE,SAINT JOSEPH,MO,64507,39.736449,-94.7719093
QBFD,3646,STATION,110 STANBURY INDUSTRIAL DR,BROOKFIELD,MO,64628,39.776187,-93.089596
QJOP,3648,STATION,3752 ENTERPRISE AVENUE,JOPLIN,MO,64801,37.12070785,-94.46289422
QJEF,3651,STATION,2210 MAGUIRE BLVD,COLUMBIA,MO,65201,38.926136,-92.2898571
QROL,3654,STATION,4600 DURWOOD BLVD,ROLLA,MO,65401,37.98991245,-91.73017408
QSPM,3658,STATION,2700 N MULROY ROAD,STRAFFORD,MO,65757,37.243805,-93.1821154
QOLA,3660,STATION,22525 W. 167TH STREET,OLATHE,KS,66062,38.82384415,-94.84659845
QTOP,3665,STATION,7105 SE FORBES AVE,TOPEKA,KS,66619,38.9394466,-95.6827094
QWIC,3672,STATION,5180 N INDUSTRY RD,WICHITA,KS,67226,37.7778777,-97.218874
QCOF,3673,STATION,2143 ENTERPRISE DRIVE,INDEPENDENCE,KS,67301,37.23065014,-95.73284014
QSLN,3674,STATION,3660 SCANLAN AVENUE,SALINA,KS,67401,38.805322,-97.6364274
QHYS,3676,STATION,1928 HIGHWAY 40,HAYS,KS,67601,38.860488,-99.30546
QDOD,3678,STATION,103 ALLEN ROAD,DODGE CITY,KS,67801,37.7732643,-99.9427531
QCBF,3681,STATION,4406 SOUTH 19TH STREET,COUNCIL BLUFFS,IA,51501,41.21530511,-95.872146
QCBX,3682,ANNEX,4406 SOUTH 19TH STREET,COUNCIL BLUFFS,IA,51501,41.21530511,-95.872146
QCXX,3683,ANNEX,1209 31ST AVE,COUNCIL BLUFFS,IA,51501,41.22941093,-95.86264137
QLIN,3685,STATION,6330 MCCORMICK DRIVE,LINCOLN,NE,68507,40.87671384,-96.63202532
QNFK,3687,STATION,1310 NORTH 1ST ST,NORFOLK,NE,68701,42.04788665,-97.40696564
QGRI,3688,STATION,4201 GOLD CORE DRIVE,GRAND ISLAND,NE,68801,40.870215,-98.3696915
QNPL,3691,STATION,4525 TWIN RIVERS RD,NORTH PLATTE,NE,69101,41.0944796,-100.7319808
QSCT,3693,STATION,250317 SKYPORT DRIVE,SCOTTSBLUFF,NE,69361,41.8658921,-103.5882103
QNWO,3701,STATION,310 EAST JAMES DRIVE,SAINT ROSE,LA,70087,29.9885649,-90.2813062
QCOV,3704,STATION,450 NORTHPOINTE COURT,COVINGTON,LA,70433,30.4736069,-90.1906251
QLFY,3705,STATION,3600 NE EVANGELINE THROUGHWAY,CARENCRO,LA,70520,30.3124769,-92.0292711
QLCH,3706,STATION,6013 HORSEMANS DRIVE,LAKE CHARLES,LA,70615,30.2275439,-93.125552
QBAT,3708,STATION,10800 S. REITZ AVENUE,BATON ROUGE,LA,70809,30.3873542,-91.0671757
QSHP,3711,STATION,4515 MARLENA STREET,BOSSIER CITY,LA,71111,32.54759793,-93.68770275
QMON,3712,STATION,6928 MILLHAVEN ROAD,MONROE,LA,71203,32.4966803,-92.0120903
QALE,3713,STATION,530 VANDENBURG DRIVE,ALEXANDRIA,LA,71303,31.3074846,-92.528143
QELD,3717,STATION,174 COMMERCE DRIVE,EL DORADO,AR,71730,33.2382818,-92.6288135
QTXA,3718,STATION,3900 ABERNATHY DRIVE,TEXARKANA,AR,71854,33.44025375,-93.9973867
QHSP,3719,STATION,575 MID AMERICA BLVD,HOT SPRINGS NATIONAL PARK,AR,71913,34.5176381,-93.1168937
QLRO,3722,STATION,8 INDUSTRIAL PARK WAY,MABELVALE,AR,72103,34.6432997,-92.4030609
QJON,3724,STATION,3400 MOORE ROAD,JONESBORO,AR,72401,35.79660265,-90.61581454
QHRR,3726,STATION,5420 HIGHWAY 65 SOUTH,HARRISON,AR,72601,36.1883403,-93.0304541
QFYT,3727,STATION,400 N. GOAD SPRINGS ROAD,LOWELL,AR,72745,36.2612101,-94.155383
QFTS,3729,STATION,4501 INDUSTRIAL DR,FORT SMITH,AR,72916,35.3230689,-94.3855747
QWEA,3730,STATION,4720 S FRONTAGE RD,WEATHERFORD,OK,73096,35.535273,-98.660617
QNOK,3731,STATION,14748 N LINCOLN BLVD,EDMOND,OK,73013,35.62289359,-97.50480922
QOKL,3732,STATION,2701 SOUTHWEST 18TH ST,OKLAHOMA CITY,OK,73108,35.446533,-97.561887
QEND,3737,STATION,302 N. 54TH STREET ,ENID,OK,73701,36.3995049,-97.801125
QBKA,3740,STATION,1214 E HOUSTON STREET,BROKEN ARROW,OK,74012,36.046541,-95.77597
QTUL,3741,STATION,12615 EAST APACHE STREET NORTH,TULSA,OK,74116,36.1927967,-95.8348892
QLUX,3743,ANNEX,4201 MARTIN L KING BLVD,LUBBOCK,TX,79404,33.5555224,-101.8172112
QMCL,3745,STATION,2820 W. STATE HIGHWAY 31,MCALESTER,OK,74501,34.9284927,-95.8240936
QFWL,3748,STATION,4901 VILLAGE CREEK ROAD,FORT WORTH,TX,76119,32.6913399,-97.24807836
QFRI,3749,STATION,15815 EXECUTIVE DRIVE,FRISCO,TX,75033,33.2076767,-96.8052278
QDLL,3751,STATION,1101 E. CLEVELAND ROAD,HUTCHINS,TX,75141,32.6411954,-96.7394677
QIVN,3752,STATION,3215 SPUR 482,IRVING,TX,75062,32.84228539,-96.89999435
QSHE,3754,STATION,3221 NORTHGATE DRIVE,SHERMAN,TX,75092,33.5961377,-96.61729281
QMES,3755,STATION,5005 SAMUELL BLVD,MESQUITE,TX,75149,32.79489505,-96.6742676
QWDL,3756,STATION,3901 ADLER DRIVE,DALLAS,TX,75211,32.7619364,-96.8955438
QTYL,3757,STATION,800 LINDALE INDUSTRIAL PARKWAY,TYLER,TX,75706,32.46421575,-95.42538395
QLUF,3759,STATION,3402 ELLEN TROUT DRIVE,LUFKIN,TX,75904,31.3721157,-94.73533674
QNFW,3760,STATION,2701 TEXAS LONGHORN WAY,FORT WORTH,TX,76177,32.99766865,-97.30648574
QSFW,3761,STATION,6601 OAK GROVE,FORT WORTH,TX,76134,32.650341,-97.304207
QQRU,3762,STATION,1901 JOEL EAST ROAD,FORT WORTH,TX,76140,32.64568733,-97.29580167
QWIF,3763,STATION,2950 MIDWESTERN PKWY E,WICHITA FALLS,TX,76302,33.876006,-98.476058
QARL,3764,STATION,2251 E BARDIN ROAD,ARLINGTON,TX,76018,32.6721718,-97.0915278
QBYX,3766,ANNEX,3205 LONGMIRE DR,COLLEGE STATION,TX,77840,30.58765769,-96.29021864
QWAC,3767,STATION,685 ALLIANCE PARKWAY,HEWITT,TX,76643,31.46488096,-97.17461866
QHUM,3768,ANNEX,1517 GREENS RD,HOUSTON,TX,77032,29.9512141,-95.353444
QSNG,3769,STATION,949 GATEWAY DRIVE,SAN ANGELO,TX,76905,31.4732815,-100.3812077
QSPR,3770,STATION,21200 SPRING PLAZA DRIVE,SPRING,TX,77388,30.0742712,-95.4421591
QHOU,3771,STATION,8787 W GRAND PARKWAY N,CYPRESS,TX,77433,29.8014447,-95.7749861
QEHO,3772,STATION,14545 HEATHROW FOREST PARKWAY,HOUSTON,TX,77032,29.93121106,-95.32535899
QSUG,3773,STATION,233 CRAVENS  ROAD,MISSOURI CITY,TX,77489,29.627197,-95.5302169
QNHO,3774,STATION,6410 W. SAM HOUSTON PARKWAY N.,HOUSTON,TX,77041,29.86283416,-95.56430955
QWEB,3775,STATION,12556 OLD GALVESTON RD,WEBSTER,TX,77598,29.5376854,-95.1180026
QBMN,3776,STATION,1850 COMMERCE PKY,BEAUMONT,TX,77707,30.0547365,-94.1470504
QSHO,3777,STATION,6903 EAST OREM DRIVE,HOUSTON,TX,77075,29.6276034,-95.3827077
QBRY,3778,STATION,2799 NORTH EARL RUDDER FREEWAY,BRYAN,TX,77803,30.719548,-96.408358
QVCT,3779,STATION,6509 LONE TREE ROAD,VICTORIA,TX,77905,28.8113353,-96.93790048
QLRD,3780,STATION,1211 BELTWAY PARKWAY,LAREDO,TX,78045,27.6795466,-99.4795973
QWSA,3781,STATION,6808 ASCOT PARK DRIVE,SAN ANTONIO,TX,78238,29.4552126,-98.6147321
QSAN,3782,STATION,9935 DOERR LANE,SCHERTZ,TX,78154,29.615778,-98.29429586
QKLE,3783,ANNEX,300 VISTA RIDGE DRIVE,KYLE,TX,78640,30.0383027,-97.850527
QCRP,3784,STATION,246 GLASSON DRIVE,CORPUS CHRISTI,TX,78406,27.7801926,-97.5031177
QEDN,3785,STATION,502 INDEPENDENCE DRIVE,EDINBURG,TX,78541,26.3731966,-98.150414
QSAU,3786,STATION,4117 MCKINNEY FALLS PARKWAY,AUSTIN,TX,78744,30.19335593,-97.69708763
QAUS,3787,STATION,15904 IMPACT WAY,PFLUGERVILLE,TX,78660,30.4170752,-97.59141955
QUVL,3788,STATION,72 LOU STROUP DRIVE,UVALDE,TX,78801,29.21700061,-99.75112387
QAMA,3791,STATION,6671 EAST I-40,AMARILLO,TX,79118,35.194188,-101.7642936
QARX,3792,ANNEX,4901 VILLAGE CREEK ROAD,FORT WORTH,TX,76119,32.6913399,-97.24807836
QLUB,3794,STATION,5831 ELM AVENUE,LUBBOCK,TX,79404,33.54113288,-101.831295
QESN,3795,SUBSTATION,2002 CORNER RIDGE,SAN ANTONIO,TX,78219,29.448573,-98.3913282
QABI,3796,STATION,801 NORTH ARNOLD BLVD,ABILENE,TX,79603,32.45968515,-99.8076344
QMID,3797,STATION,3900 S CR 1276,MIDLAND,TX,79706,31.9229547,-102.211192
QFST,3798,STATION,601 MARTIN ADAMS,FORT STOCKTON,TX,79735,30.8877667,-102.8443564
QELP,3799,STATION,11501 WILKINSON DRIVE,EL PASO,TX,79936,31.743041,-106.312157
QENG,3801,STATION,14257 EAST EASTER AVENUE,ENGLEWOOD,CO,80112,39.5889328,-104.8230638
QDNL,3802,STATION,8951 YOSEMITE STREET,HENDERSON,CO,80640,39.8594904,-104.886485
QCEN,3803,STATION,14250 GRASSLANDS DRIVE,ENGLEWOOD,CO,80112,39.5629035,-104.8229149
QKRM,3804,STATION,1505 TYLER AVENUE,KREMMLING,CO,80459,40.0519909,-106.3761118
QFTC,3805,STATION,3870 RONALD REAGAN BOULEVARD,JOHNSTOWN,CO,80534,40.4022068,-104.9622654
QBLD,3806,STATION,12405 W. 112TH AVE,BROOMFIELD,CO,80021,39.9001025,-105.078212
QFMO,3807,STATION,2929 E PLATTE AVE,FORT MORGAN,CO,80701,40.2540062,-103.8013365
QCSP,3809,STATION,125 TROY HILL ROAD,COLORADO SPRINGS,CO,80916,38.8339059,-104.7225634
QBNV,3810,STATION,481 GREGG DRIVE,BUENA VISTA,CO,81211,38.8251054,-106.1371645
QALM,3811,STATION,2300 COMMERCE CIRCLE,ALAMOSA,CO,81101,37.447561,-105.869322
QPBL,3812,STATION,150 GREENHORN DRIVE,PUEBLO,CO,81004,38.20446104,-104.6291502
QMTS,3814,STATION,2325 AIR PARK WAY,MONTROSE,CO,81401,38.49979644,-107.9037939
QGJC,3815,STATION,715 23 RD,GRAND JUNCTION,CO,81505,39.10693915,-108.6290826
QGSP,3816,STATION,3923 COUNTY ROAD 154,GLENWOOD SPRINGS,CO,81601,39.4846751,-107.2961029
QEAG,3817,STATION,332 PLANE STREET,GYPSUM,CO,81637,39.636733,-106.913899
QNAU,3819,STATION,20431 EAST 35TH DRIVE,AURORA,CO,80011,39.76371455,-104.7499419
QCHE,3820,STATION,8417 TRUCKER TRL,CHEYENNE,WY,82007,41.1405947,-104.7006014
QWDV,3821,SUBSTATION,1105 W 48TH STREET,DENVER,CO,80221,39.7846772,-105.0015977
QJHS,3822,SUBSTATION,3867 RONALD REAGAN BOULEVARD,JOHNSTOWN,CO,80534,40.40348529,-104.9603747
QCOD,3824,STATION,701 33rd STREET,CODY,WY,82414,44.5426808,-109.0307605
QRVT,3825,STATION,4551 AIRPORT RD,RIVERTON,WY,82501,43.05390643,-108.4526162
QCAS,3826,STATION,2962 SALT CREEK PARKWAY,CASPER,WY,82601,42.8608834,-106.3574539
QGLT,3827,STATION,3841 GARMAN ROAD,GILLETTE,WY,82716,44.3328389,-105.520781
QSHR,3828,STATION,1901 KROE LANE,SHERIDAN,WY,82801,44.799143,-106.9365894
QRSP,3829,STATION,2830 KILLPECKER DRIVE,ROCK SPRINGS,WY,82901,41.62915079,-109.2391773
QPOC,3832,STATION,7121 SOUTH 5TH AVENUE,POCATELLO,ID,83204,42.8139234,-112.3787877
QTWF,3833,STATION,382 AMERICAN AVENUE,JEROME,ID,83338,42.65726724,-114.4545427
QREX,3834,STATION,594 N 4062 E,RIGBY,ID,83442,43.7129102,-111.8896675
QLEW,3835,STATION,1121 WALL STREET,LEWISTON,ID,83501,46.4325916,-117.0161457
QBOI,3837,STATION,6610 SOUTH ELITE DRIVE,BOISE,ID,83716,43.5422094,-116.1873147
QSDP,3838,STATION,195 MCNEARNEY ROAD,PONDERAY,ID,83852,48.3107106,-116.5354367
QMCA,3839,STATION,13873 HIGHWAY 55,MCCALL,ID,83638,44.8386008,-116.0865521
QVRN,3840,STATION,1127 EAST 1000 SOUTH,VERNAL,UT,84078,40.4415385,-109.5067058
QGLN,3842,STATION,1095 SOUTH 4800 WEST,SALT LAKE CITY,UT,84104,40.747472,-112.0048561
QLGN,3843,STATION,1555 NORTH 1000 WEST,LOGAN,UT,84321,41.7608605,-111.8587968
QPRV,3846,STATION,526 EAST 1750 NORTH,VINEYARD,UT,84058,40.3290608,-111.7396549
QHUR,3847,STATION,5698 W. 155 NORTH,HURRICANE,UT,84737,37.1686838,-113.4230099
QRHF,3848,STATION,603 WEST 1550 SOUTH,SALINA,UT,84654,38.9364995,-111.8700401
QNPH,3849,STATION,23000 N 7TH AVENUE,PHOENIX,AZ,85027,33.6699241,-112.0829696
QPHO,3851,STATION,3410 SOUTH 51ST AVENUE,PHOENIX,AZ,85043,33.41707465,-112.1717347
QTMP,3852,STATION,1666 N. MCCLINTOCK DRIVE,TEMPE,AZ,85281,33.44732321,-111.9094536
QYUM,3853,STATION,7685 E. 30TH STREET,YUMA,AZ,85365,32.6739888,-114.478263
QLHV,3854,STATION,2041 KIOWA BOULEVARD N.,LAKE HAVASU CITY,AZ,86403,34.50506809,-114.3421096
QSVT,3856,STATION,4400 INDUSTRY DRIVE,SIERRA VISTA,AZ,85635,31.5656614,-110.2528931
QTUC,3857,STATION,3350 E. WESTCO PL.,TUCSON,AZ,85756,32.1245129,-110.9221632
QCHD,3858,STATION,2650 EAST QUEEN CREEK RD,CHANDLER,AZ,85286,33.2642792,-111.7951846
QSHL,3859,STATION,2701 E. ADAMS ST.,SHOW LOW,AZ,85901,34.2557896,-110.013003
QFLG,3860,STATION,5700 S. PULLIAM DRIVE,FLAGSTAFF,AZ,86001,35.1437313,-111.678978
QOGD,3861,STATION,750 NORTH FRANKLIN PARKWAY,NORTH SALT LAKE,UT,84054,40.8567001,-111.9170366
QPRS,3863,STATION,2980 CENTERPOINTE EAST DR,PRESCOTT,AZ,86301,34.63061976,-112.4106356
QKNG,3864,STATION,2549 OATMAN ROAD,GOLDEN VALLEY,AZ,86413,35.1378361,-114.1103135
QSLL,3865,STATION,720 NORTH 400 WEST,NORTH SALT LAKE,UT,84054,40.85546866,-111.9204791
QWVC,3866,STATION,1455 SOUTH 5500 WEST,SALT LAKE CITY,UT,84104,40.73926664,-112.0220984
QWPH,3867,STATION,801 S. 75TH AVE,PHOENIX,AZ,85043,33.445671,-112.221065
QABQ,3871,STATION,8000 DAYTONA ROAD,ALBUQUERQUE,NM,87121,35.087929,-106.737781
QGDY,3873,STATION,890 S 143RD AVE,GOODYEAR,AZ,85338,33.4137761,-112.3663375
QFRM,3874,STATION,3000 PEPSI WAY,AZTEC,NM,87410,36.80890945,-108.0046486
QSAF,3875,STATION,4700 HART ROAD,SANTA FE,NM,87507,35.627964,-106.073659
QWSP,3878,SUBSTATION,16621 E. EUCLID AVE,SPOKANE VALLEY,WA,99216,47.68384933,-117.18387
QWEL,3879,STATION,750 INDUSTRIAL ROAD,SANTA TERESA,NM,88008,31.8486536,-106.7120385
QSSJ,3880,SUBSTATION,1605 INDUSTRIAL AVE,SAN JOSE,CA,95112,37.3734851,-121.9015836
QMOD,3881,STATION,1215 E WHITMORE AVE,MODESTO,CA,95358,37.5949353,-120.9929068
QROS,3882,STATION,419 E. BRASHER ROAD,ROSWELL,NM,88203,33.35103288,-104.5228825
QSHW,3883,STATION,13115 SW TUALATIN SHERWOOD RD,SHERWOOD,OR,97140,45.369034,-122.8419081
QCSB,3885,STATION,903-F AIRPORT AVENUE,CARLSBAD,NM,88220,32.35564712,-104.2373582
QLAS,3891,STATION,470 E. BRUNER AVE,HENDERSON,NV,89044,35.970164,-115.159117
QNLV,3892,STATION,5265 N SLOAN LANE,LAS VEGAS,NV,89115,36.2586466,-115.043424
QREN,3895,STATION,12501 MUSTANG ROAD,SPARKS,NV,89434,39.5150993,-119.6216623
QNPD,3897,STATION,751 NE COLUMBIA BLVD,PORTLAND,OR,97211,45.58016991,-122.6576631
QELK,3898,STATION,3225 RUBY VISTA DRIVE,ELKO,NV,89801,40.8615075,-115.7427652
QBLL,3901,STATION,5391 RICKENBACKER ROAD,BELL,CA,90201,33.9891656,-118.1619965
QLOS,3902,STATION,2600 EAST 28TH STREET,LOS ANGELES,CA,90058,34.01197817,-118.226717
QCRX,3904,ANNEX,18049 S WILMINGTON AVE,CARSON,CA,90746,33.86708136,-118.2356808
QCRS,3905,STATION,1725 CHARLES WILLARD STREET,CARSON,CA,90746,33.86434157,-118.2362598
QSFS,3906,STATION,11688 GREENSTONE AVENUE,SANTA FE SPRINGS,CA,90670,33.9254895,-118.0579883
QLHB,3908,SUBSTATION,555 S HARBOR BLVD,LA HABRA,CA,90631,33.92663646,-117.9331427
QANA,3909,STATION,590 E ORANGE THORPE AVENUE,ANAHEIM,CA,92801,33.8590552,-117.9151872
QARC,3910,STATION,12369 LOWER AZUSA ROAD,ARCADIA,CA,91006,34.08819306,-118.0017532
QNHW,3913,SUBSTATION,13230 SATICOY ST,NORTH HOLLYWOOD,CA,91605,34.2071435,-118.4216955
QBUR,3914,STATION,12500 BRANFORD STREET,PACOIMA,CA,91331,34.2464407,-118.4022557
QSNV,3915,STATION,9210 SAN FERNANDO ROAD,SUN VALLEY,CA,91352,34.2299643,-118.383882
QCNL,3916,STATION,15020 FLIGHT AVENUE,CHINO,CA,91710,33.9759722,-117.6191943
QLRL,3917,STATION,330 RESOURCE DRIVE,BLOOMINGTON,CA,92316,34.0421371,-117.374446
QIDS,3918,STATION,200 OLD RANCH ROAD,CITY OF INDUSTRY,CA,91789,34.0197139,-117.8360882
QOCE,3919,STATION,1402 AVENIDA DEL ORO,OCEANSIDE,CA,92056,33.2059613,-117.2894538
QOTA,3920,STATION,10132 AIRWAY ROAD,SAN DIEGO,CA,92154,32.56026298,-116.9355733
QSDG,3921,STATION,9999 OLSON DRIVE,SAN DIEGO,CA,92121,32.885853,-117.196216
QPAL,3922,STATION,411 WEST GARNET AVE,NORTH PALM SPRINGS,CA,92258,33.9027416,-116.5517278
QWRT,3925,STATION,11600 CACTUS AVE,BLOOMINGTON,CA,92316,34.043047,-117.3826022
QSRT,3926,STATION,315 WEST RESOURCE DRIVE,BLOOMINGTON,CA,92316,34.0410229,-117.3781307
QRLX,3927,ANNEX,315 WEST RESOURCE DRIVE,BLOOMINGTON,CA,92316,34.0410229,-117.3781307
QFLR,3928,STATION,458 EAST LAMBERT ROAD,FULLERTON,CA,92835,33.9234387,-117.9277239
QVEN,3931,STATION,5198 COLT STREET,VENTURA,CA,93003,34.2500639,-119.2193674
QBSH,3932,STATION,375 AIRPORT ROAD,BISHOP,CA,93514,37.3705323,-118.365815
QBKF,3933,STATION,3300 ENTERPRISE STREET,SHAFTER,CA,93263,35.4529369,-119.1952066
QSMA,3934,STATION,1424 FAIRWAY DRIVE,SANTA MARIA,CA,93455,34.915197,-120.449203
QLAN,3935,STATION,385 GRAND CYPRESS AVENUE,PALMDALE,CA,93551,34.61378829,-118.1365232
QFRE,3937,STATION,3151 S. EAST AVE,FRESNO,CA,93725,36.68957039,-119.7728234
QSLI,3939,STATION,300 MANABE OW ROAD,WATSONVILLE,CA,95076,36.9058212,-121.7792013
QFAX,3940,ANNEX,2950 CORDELIA RD,FAIRFIELD,CA,94534,38.2184229,-122.1127864
QSFR,3941,STATION,1070 SAN MATEO AVE,SOUTH SAN FRANCISCO,CA,94080,37.6492967,-122.4090134
QESA,3942,STATION,8371 ROVANA CIRCLE,SACRAMENTO,CA,95828,38.50709699,-121.3926579
QFMT,3943,STATION,8333 CENTRAL AVENUE,NEWARK,CA,94560,37.51899185,-122.042767
QFAI,3945,STATION,5191 FERMI DRIVE,FAIRFIELD,CA,94534,38.2038324,-122.1423507
QOAK,3946,STATION,1400 BUSINESS CENTER DRIVE,SAN LEANDRO,CA,94577,37.711298,-122.1894723
QHAY,3947,STATION,3596 BAUMBERG AVE,HAYWARD,CA,94545,37.61610204,-122.1021894
QUKI,3949,STATION,1-B CAROUSEL LANE,UKIAH,CA,95482,39.2015897,-123.2024366
QESX,3950,ANNEX,8371 ROVANA CIRCLE,SACRAMENTO,CA,95828,38.50709699,-121.3926579
QSJO,3951,STATION,696 E. TRIMBLE ROAD,SAN JOSE,CA,95131,37.3938231,-121.9164217
QTRL,3952,STATION,5655 HOOD WAY,TRACY,CA,95377,37.730987,-121.5088363
QSRO,3954,STATION,500 CALETTI AVENUE,WINDSOR,CA,95492,38.51752955,-122.7892274
QEUR,3955,STATION,1385 8TH STREET,ARCATA,CA,95521,40.86963456,-124.0930716
QROV,3956,STATION,8501 FOOTHILLS BLVD,ROSEVILLE,CA,95747,38.78655775,-121.3104895
QSAC,3957,STATION,8200 ELDER CREEK ROAD,SACRAMENTO,CA,95824,38.510481,-121.402345
QCHC,3959,STATION,101 BOOK FARM ROAD,DURHAM,CA,95938,39.6410139,-121.7219781
QRED,3961,STATION,1497 GEORGE DRIVE,REDDING,CA,96003,40.6272555,-122.3733395
QSNJ,3963,STATION,115 SALTSPRING DR,FRIDAY HARBOR,WA,98250,48.5374965,-123.0457893
QLCT,3970,STATION,2615 SE 23RD DRIVE,LINCOLN CITY,OR,97367,44.95126799,-124.0132041
QWPO,3971,STATION,6447 NORTH CUTTER CIRCLE,PORTLAND,OR,97217,45.57105845,-122.705406
QPOR,3972,STATION,2460 N.W. SUNDIAL ROAD,TROUTDALE,OR,97060,45.5576535,-122.4025759
QSLM,3973,STATION,3935 AUMSVILLE HIGHWAY SE,SALEM,OR,97317,44.8980005,-122.9663217
QEUG,3974,STATION,3200 CROSS STREET,EUGENE,OR,97402,44.06246067,-123.1446132
QMED,3975,STATION,555 FEDERAL WAY,CENTRAL POINT,OR,97502,42.3734943,-122.8892388
QKLM,3976,STATION,6280 ALTAMONT DRIVE,KLAMATH FALLS,OR,97601,42.1885855,-121.7473994
QBND,3977,STATION,20750 BRINSON BOULEVARD,BEND,OR,97701,44.08427431,-121.2880738
QLGD,3978,STATION,2321 JEFFERSON AVENUE,LA GRANDE,OR,97850,45.31890577,-118.0769592
QCBY,3979,STATION,3333 OCEAN BLVD,COOS BAY,OR,97420,43.38390506,-124.2513587
QNSE,3980,STATION,18795 NE 73RD STREET,REDMOND,WA,98052,47.6697631,-122.1364617
QSEA,3981,STATION,"3702 C STREET, NE",AUBURN,WA,98002,47.3410506,-122.2244148
QEVR,3982,STATION,2000 SOUTH WALNUT STREET,BURLINGTON,WA,98233,48.451908,-122.33157
QPTA,3983,STATION,51 EASY STREET,PORT ANGELES,WA,98362,48.1024108,-123.3446982
QOLY,3985,STATION,3775 PIONEER AVENUE,DUPONT,WA,98327,47.117545,-122.6384178
QTDL,3986,STATION,3840 CRATES WAY,THE DALLES,OR,97058,45.628714,-121.202836
QWNA,3988,STATION,5823 NELPAR DRIVE,EAST WENATCHEE,WA,98802,47.5178464,-120.2881955
QYAK,3989,STATION,2801 GOODMAN ROAD,UNION GAP,WA,98903,46.55413062,-120.5019571
QMLK,3990,STATION,5178 RANDOLPH ROAD NE,MOSES LAKE,WA,98837,47.18277149,-119.2998796
QOMK,3991,STATION,1219 KOALA DRIVE,OMAK,WA,98841,48.42785898,-119.4978598
QSPO,3992,STATION,4005 NORTH  MOORE ROAD,SPOKANE,WA,99216,47.69324133,-117.190466
QPAS,3993,STATION,5515 N. INDUSTRIAL WAY,PASCO,WA,99301,46.2777779,-119.0934861
QTAC,3994,STATION,3015 78TH AVENUE EAST,TACOMA,WA,98424,47.2288338,-122.3250081
NOMA,5015,SMARTPOST HUB,1 BEEMAN ROAD,NORTHBOROUGH,MA,1532,42.3118463,-71.60675887
EDNJ,5087,SMARTPOST HUB,200 NIXON LANE,EDISON,NJ,8837,40.4964292,-74.3626178
CLPA,5150,SMARTPOST HUB,2291 SWEENEY DRIVE,CLINTON,PA,15026,40.49727395,-80.29462165
ALPA,5185,SMARTPOST HUB,8451 WILLARD DR.,BREINIGSVILLE,PA,18031,40.5546356,-75.6284464
HAMD,5213,SMARTPOST HUB,4801 HOLLINS FERRY ROAD,HALETHORPE,MD,21227,39.2259766,-76.68572772
MAWV,5254,SMARTPOST HUB,553 CAPERTON BLVD.,MARTINSBURG,WV,25403,39.51410204,-77.96079944
CHNC,5281,SMARTPOST HUB,4690 GLOBAL AVE NW,CONCORD,NC,28027,35.431235,-80.6550128
ATGA,5303,SMARTPOST HUB,4644 SOUTHPARK BLVD,ELLENWOOD,GA,30294,33.6283848,-84.2889375
TFFL,5327,SMARTPOST HUB,501 GILLS DR,ORLANDO,FL,32824,28.4419115,-81.3842762
SHMS,5379,SMARTPOST HUB,4325 EXECUTIVE DRIVE,SOUTHAVEN,MS,38672,34.9241294,-90.0002914
GCOH,5431,SMARTPOST HUB,2969 LEWIS CENTRE WAY,GROVE CITY,OH,43123,39.9043547,-83.0948498
ININ,5465,ANNEX,8951 MIRABEL ROAD,INDIANAPOLIS,IN,46241,39.6811615,-86.32235023
BLMI,5481,SMARTPOST HUB,41775 ECORSE RD,BELLEVILLE,MI,48111,42.2485172,-83.4803312
NBWI,5531,SMARTPOST HUB,16555 WEST ROGERS DRIVE,NEW BERLIN,WI,53151,43.00736799,-88.12374804
MPMN,5552,SMARTPOST HUB,8450 REVERE LANE NORTH,OSSEO,MN,55369,45.1065747,-93.4101302
NSMO,5631,ANNEX,9000 PREMIER PARKWAY SOUTH,SAINT PETERS,MO,63376,38.8069025,-90.5966117
KCKS,5648,SMARTPOST HUB,22161 WEST 167TH ST,OLATHE,KS,66062,38.823954,-94.84215955
WDTX,5751,ANNEX,3901 ADLER DRIVE,DALLAS,TX,75211,32.7619364,-96.8955438
HUTX,5771,SMARTPOST HUB,1517 GREENS RD,HOUSTON,TX,77032,29.9512141,-95.353444
NACO,5802,SMARTPOST HUB,20431 EAST 35TH DRIVE,AURORA,CO,80011,39.76371455,-104.7499419
BOID,5837,ANNEX,6610 SOUTH ELITE DRIVE,BOISE,ID,83716,43.5422094,-116.1873147
WVUT,5843,ANNEX,1455 SOUTH 5500 WEST,SALT LAKE CITY,UT,84104,40.73926664,-112.0220984
WPAZ,5854,SMARTPOST HUB,801 S. 75TH AVE,PHOENIX,AZ,85043,33.445671,-112.221065
CHCA,5929,ANNEX,16142 FERN AVENUE,CHINO,CA,91708,33.96059672,-117.6550462
EMCA,5958,SMARTPOST HUB,8371 ROVANA CIRCLE,SACRAMENTO,CA,95828,38.50709699,-121.3926579
KEWA,5983,SMARTPOST HUB,22114 76TH AVE SOUTH,KENT,WA,98032,47.4034192,-122.2379767
